Service Name,Service Alternate Name,Category,Organization,Main Phone Number,Alternative Phone Number,Fax Number,Street Address,City,State,ZIP Code,URL,Description
Abuse and Neglect Hotlines,,Abuse and Neglect Hotlines,Missouri Dept. of Health and Senior Services  ,1-800-392-0210,1-800-392-3738,,,,MO,,https://health.mo.gov/,"Reports of Abuse, Neglect and Exploitation of an Adult or Child"
Abuse and Neglect Hotlines,,Abuse and Neglect Hotlines,Rape & Abuse Hotline,800-303-0013,,,,,MO,,https://www.rainn.org/ ,Hotline for individual who needs to talk regarding rape or any abuse.  
Abuse and Neglect Hotlines,,Abuse and Neglect Hotlines,Kansas Hot Line ,800-922-5330,,,,,KS,,http://www.dcf.ks.gov/services/pps/pages/kips/kipswebintake.aspx,"Reports of Abuse, Neglect and Exploitation of an Adult or Child"
Abuse and Neglect Hotlines,,Abuse and Neglect Hotlines,Oklahoma Hot Line,800-522-3511,405-841-0800,,,,OK,,https://www.ok.gov/health/Family_Health/Family_Support_and_Prevention_Service/Oklahoma_Child_Abuse_Hotline/index.html,"Reports of Abuse, Neglect and Exploitation of an Adult or Child"
Acute Rehab Facilities,,Acute Rehab Facilities,Freeman East Rehab,417-347-1234,,417-347-1243,932 E. 34th Street,Joplin,MO,64804,,Our interdisciplinary team works closely together to design individual care plans for each patient
Acute Rehab Facilities,,Acute Rehab Facilities,Labette County Medical Center - Webster Inpatient Rehab,620-778-3325,,620-820-5170,"1902 S. US Highway 59, Bldg. E, Suite 201",Parsons,KS,67357,,"Treats many diseases and injuries related to the nerves, muscles, bones and brain including migraines, traumatic brain injury, spinal cord injury, stroke and more."
Acute Rehab Facilities,,Acute Rehab Facilities,Via Christi Rehab,620-235-7988,620-232-0178,,1 Mt Carmel Way,Pittsburg,KS,66762,,"Ascension Via Christi Hospital Pittsburg's multidisciplinary team of rehabilitation professionals are committed to developing individualized, problem-specific, result-driven treatment plans for our patients. Rehabilitation services are available to inpatients, skilled nursing patients, outpatients and home health patients."
Acute Rehab Facilities,,Acute Rehab Facilities,Post Acute Medical (PAM),918-663-8183,,,3219 South 79th East Avenue,Tulsa,OK,74145,,Certified by Medicare and licensed as an acute long-term care hospital providing specialized medical care to acutely ill patients requiring extended recovery time after the acute care hospital stay.
Acute Rehab Facilities,,Acute Rehab Facilities,Kaiser Rehabilitation Center,918-579-7100,,,1125 S. Trenton Ave      ,Tulsa,OK,74120,,Inpatient rehabilitation center.
Acute Rehab Facilities,,Acute Rehab Facilities,St John's Rehabilitation Service,(918) 748-1333,,,"1819 E 19th St, Ste 300      ",Tulsa,OK,74104, https://www.stjohnhealthsystem.com/clinic,Outpatient clinic.
Adult Education & Assistance,,Adult Education & Assistance,Adult Basic Education ,417-359-7095,,,609 River St,Carthage,MO,64836,,Individual instruction in basic academic subjects and vocational counseling;  GED preparations (in English) and instruction for Post-Secondary remediation.
Adult Education & Assistance,,Adult Education & Assistance,Adult Education & Literacy Learning Center  ,417-625-5263 ,,,123 South Main,Joplin,MO,64804,,"Mon-Thursday 8:30am-2pm, Friday 8:30-noon, Orientation 1st & 3rd Tues. 9am-noon. Evening classes: Mon-Thurs  5-8pm, orientation 2nd & 4th Tues. 5:30-8pm "
Adult Education & Assistance,,Adult Education & Assistance,Adult Education & Literacy - Webb City,417-625-5263,,,101 S. Liberty,Webb City,MO,64870,,1st Tues. at 8:30   2nd & 4th Tuesdays at 6:30 pm
Adult Education & Assistance,,Adult Education & Assistance,ASPIRE of SWMO ,417-291-1640,,,P.O. Box 4623,Joplin,MO,64803,,Offers College scholarships to single parents in Jasper / Newton County.
Adult Education & Assistance,,Adult Education & Assistance,Crowder College,417-455-5521,,,601 Laclede Ave,Neosho,MO,64850,,"Individual instruction in HS equivalency, compass test, college and career readiness.  Pell Grants, etc."
Adult Education & Assistance,,Adult Education & Assistance,Mary K Finley Library,417-682-5355,,,300 W 10th St,Lamar,MO,64759,,"Training in: Computer class, literature and reading assistance, and proctoring for exams."
Adult Education & Assistance,,Adult Education & Assistance,Department of Vocational Rehabilitation ,417-629-3067 ,,,801 E. 15th St,Joplin,MO,64804,,Assist eligible Missouri citizens who have disabilities and who want to be employed.
College Prep for High School Students,,Adult Education & Assistance,Educational Talent Search at MSSU ,417-659-5440,,,3950 E. Newman Rd,Joplin,MO,64801,,"MSSU, College Prep for High School Students"
Adult Education & Assistance,,Adult Education & Assistance,Franklin Technical ,417-625-5260,,,,,,,ww.franklintechjoplin.com,Offers several certificate/technical programs & financial aid available.
Adult Education & Assistance,,Adult Education & Assistance,HS Equivalency Program Crowder College   ,417-451-3223        ,,,,,,, www.hepcamp.org ,"Provides economic assistance, GED prep/GED in Spanish, Housing for those in residential program, tutorial assistance, academic & vocational counseling, career advisement."
Adult Education & Assistance,,Adult Education & Assistance,Joplin Adult Basic Education,417-625-5263,,,123 Main St,Joplin,MO,64801,,"Literacy services, GED classes, ACT prep, ESL Class."
Immigrant Education Services,,Adult Education & Assistance,Joplin Neighborhood Adult Literacy Action ,417-782-2646 ,,,123 S. Main Street,Joplin,MO,64801,,"English as a second language, Math & Literacy classes available. Citizenship Testing Classes.  Evening courses also available."
Job Search,,Adult Education & Assistance,Missouri Job Center ,417-659-3000,,,730 S. Wall Ave,Joplin,MO,64801,,"One stop for Job Search (jobs.mo.gov), Hiring Events, Resume, Skill Enhancement, NCRC and more. Monday-Thursday 8:30am-4pm, Friday 10am-3pm, Orientation Monday 12-4pm                                              Evening Classes: Mon-Wed. 6-8:30pm, orientation 1st & 3rd 6-8:30pm "
Adult Education & Assistance,,Adult Education & Assistance,Missouri Southern State University,417-625-9325,,,3950 E. Newman Rd,Joplin,MO,64801,,Financial assistance for continuing ed people interested in attending college. Loans and Grants
Adult Education & Assistance,,Adult Education & Assistance,University of MO Extension,417-358-2158,,,,Springfield,MO,,METP@missouri.edu,"METP, MO Employment and Training Program.  Helps families on food stamps with education and other assistance."
Adult Education & Assistance,,Adult Education & Assistance,VA Educational Benefits ,1-888-442-4551,,,,,,,benefits.va.gov/gibill/,"GI Bill benefits help you pay for college, graduate school, and training programs."
Adult Education & Assistance,,Adult Education & Assistance,Webb City Public Library,417-625-5263,,,101 S Liberty St,Webb City,MO,64870,,Free HS Equivalency Preparation. Tues-Thurs 5pm-7:30pm  
Adult Education & Assistance,,Adult Education & Assistance,MOLearns,314-415-4935,,,,,,,www.MOLearns.com,MOLearns is Missouri's FREE high school equivalency (HSE) preparation online classroom. 
Adult Education & Assistance,,Adult Education & Assistance,Pittsburg State University,620-231-7000,,,1701 S. Broadway,Pittsburg,KS,66762,www.pittstate.edu,University-Higher Education
Adult Education & Assistance,,Adult Education & Assistance," Southeast Kansas Community Action Program / SEK-CAP, Inc",620-724-8204,,,401 N. Sinnet,Girard,KS,66743,,Family and Community Engagement Department (FCE) and the Life Skills Development help people with education and life skills to focus on helping clients gain self-sufficiency and learn how to provide for themselves.
Adult Education & Assistance,,Adult Education & Assistance,Union Adult Learning Center,918-357-7040,,,7616 S Garnett Rd,Broken Arrow,OK,74012,,"A regional program based in Tulsa and offers a variety of classes for adults in the Tulsa metro area as well as in Rogers, Osage, Muskogee, Mayes and Wagoner counties."
Adult Education & Assistance,,Adult Education & Assistance,Oklahoma State Regents for Higher Education,405-225-9100,,,"655 Research Parkway, Suite 200",Oklahoma City,OK,73104,https://www.okhighered.org/,
AIDS Information-Treatment,,AIDS Information-Treatment,AIDS Project of the Ozark,417-624-5788,,,321 E 4th  St,Joplin,MO,64804,,"Free HIV Testing & Free case management for people with HIV.  Early intervention, counseling, support groups."
AIDS Information-Treatment,,AIDS Information-Treatment,Children AIDs Fund,703-433-1560,,,,,MO,,www.childrensaidsfund.org,"One time emergency help - rent, utilities, insurance, medical care  - case by case "
AIDS Information-Treatment,,AIDS Information-Treatment,Doorways / Cooper House,314-535-1919,,,4385 Maryland Ave,St. Louis,MO,63118,,Housing for persons with HIV / AIDS
AIDS Information-Treatment,,AIDS Information-Treatment,HOPE Care Center,816-523-3988,,,115 E. 83rd Street,Kansas City,MO,64114,,We are a Skilled Nursing Facility providing care to HIV-positive residents who are 18 years of age or older. SNF for persons with HIV / AIDS
AIDS Information-Treatment,,AIDS Information-Treatment,Joplin City Health Dept.,417-623-6122,,,,Joplin,MO,,,"Free/low cost AIDS testing/Child Immunization, Flu Shot, STD Testing"
AIDS Information-Treatment,,AIDS Information-Treatment,Kansas Dept. of Health & Environment,785-296-6174 ,,785-559-4225,1000 SW Jackson,Topeka,KS,66612,,Ryan White Part B Program. Providing Care and Support Services for Kansans Living with HIV-Infection
AIDS Information-Treatment,,AIDS Information-Treatment,Tulsa Cares,918-834-4194,,918-934-4189,3712 E. 11th Street,Tulsa,OK,74112,,Delivering social services to people affected by HIV/AIDS.
Alzheimer's Support Groups,,Alzheimer's Support Groups,Oak Point in Carthage,417-279-8955,,,300 W Airport Dr,Carthage,MO,64836,,Every other Monday at noon
Alzheimer's Support Groups,,Alzheimer's Support Groups,Carthage Health and Rehab,417-358-1937,,,"1901 Buena Vista Ave, # A",Carthage,MO,64836,,Every third Wednesday at 4:30 pm
Alzheimer's Support Groups,,Alzheimer's Support Groups,Freeman East Hospital,417-347-1111,,,932 E. 34th St.,Joplin,MO,64804,,Second Tuesday of the month at 6 pm
Alzheimer's Support Groups,,Alzheimer's Support Groups,Joplin Alzheimer’s Caregiver Support Group Area Agency on Aging,417-434-3861,,,531 E. 15th St,Joplin,MO,64804,,3rd Thursday of each month from 6:00 to 7:30pm
Alzheimer's Support Groups,,Alzheimer's Support Groups,National Health Care,417-781-1737,,,,,MO,,,Every third Thursday at 4 pm
Alzheimer's Support Groups,,Alzheimer's Support Groups,Webb City Library Community Room, 417-673-4326,,,101 S Liberty St,Webb City,MO,64870,,Every fourth Tuesday at 4 pm Community Room
Alzheimer's Support Groups,,Alzheimer's Support Groups,"Southeast Kansas, Regional Office",620-421-6550 ext. 1794,,,601 Gabriel,Parsons,KS,67357,adecoster@alz.org, Hours will vary. Please email Angela DeCoster to arrange and appointment.
Alzheimer's Support Groups,,Alzheimer's Support Groups,Alzheimer's Association,800-272-3900,,,,,OK,,https://www.alz.org/oklahoma,
Alzheimer's Support Groups,,Alzheimer's Support Groups,LIFE's Adult Day Health Center & LIFE PACE - Cathy Ozmun,918-664-9000 ext. 8448,,,902 East Pine Street,Tulsa,OK,74106,cozmun@lifeseniorservices.org,"Meets the 3rd Tuesday of each month from 5-6 pm. Group gives caregivers an opportunity to come together and share their experiences with eldercare, as well as to gain information about specific topics that will help in their caregiving journeys."
Alzheimer's Support Groups,,Alzheimer's Support Groups,LIFE's Adult Day Health Center- Teri Geilfuss,918- 664-9000 ext. 324,,,3106 S Juniper,Broken Arrow,OK,74012,tgeilfuss@LIFEseniorservices.org,"2nd Thursday of each month - 3 - 4:30 p.m. 4th Thursday of each month-5:30-7pm. Group gives caregivers an opportunity to come together and share their experiences with eldercare, as well as to gain information about specific topics that will help in their caregiving journeys."
Alzheimer's Support Groups,,Alzheimer's Support Groups,LIFE's Adult Day Health Center - Alisha Hill,918-664-9000 ext. 244,,,5950 East 31st. Street,Tulsa,OK,74135,31fac@LIFEseniorservices.org,"1st Thursday of each month - 6 - 7:30 p.m.  3rd Thursday of each month - 3 - 4:30 p.m. Group gives caregivers an opportunity to come together and share their experiences with eldercare, as well as to gain information about specific topics that will help in their caregiving journeys."
Behavioral Health,,Behavioral Health,Applied Psychological Services,417-627-9601,,,"2700 N. Rangeline, Suite 101",Joplin,MO,64801,www.apsjoplin.com,"Provides individual and family counseling for adults and children, as well as personality disorder testing, IQ, educational testing, and any other general psychological evaluations."
Behavioral Health,,Behavioral Health,Behavior Management Associates,417-782-1910,,,"2702 Cunningham Ave, Ste A",Joplin,MO,64804,www.behaviormgt.com,Psychologist Office
Behavioral Health,,Behavioral Health,Clark Community Mental Health Center,417-235-6610,,,1701 N. Central Avenue,Monett,MO,65708,,"Clark Community Mental Health Center offers outpatient services to the surrounding communities of Barry, Lawrence and Dade counties. Outpatient services include individual, group and family therapies and medication services. Licensed psychologists, clinical social workers and professional counselors provide therapy services to both adults and children. We also have a team of psychiatrists and nurse practitioners who provide medication services."
Behavioral Health,,Behavioral Health,College Skyline Center,417-782-1443,1-800-624-1054 ,,1230 N. Duquesne,Joplin,MO,64801,,"Services we provide include:  Individual and Family,  Marriage,  Premarital,  Sexual,  Court-Ordered,  Grief,  Eating Disorders,  Substance Abuse,  Parenting,  Aftercare Following Hospitalization,  Crisis Intervention ,  Critical Incident Debriefing."
Behavioral Health,,Behavioral Health,Counseling Associates of the Four States,417-627-9994 ,,,705 W 26th St,Joplin,MO,64804,www.counselingjoplin.com,"Depression, Eating Disorders, Obsessive Compulsive Disorders, Anger Management, Stress Management, Substance Abuse, PTSD, Trauma, Grief/Loss, Geriatric & Caregiver Support, Dissociative Identity Disorders, Personality Disorders"
Behavioral Health,,Behavioral Health,"Hendon, Snider, and Associates",417-623-1381,,,"2650 E. 32nd St, Suite 221",Joplin,MO,64804,,"They are licensed to provide medical treatment under their counseling credentials.  Anyone with questions, inquiries, or therapy needs pertaining to HERNDON SNIDER & ASSOCIATES, PC should contact them directly at their Joplin location in Missouri."
Behavioral Health,,Behavioral Health,House of Hope,417-624-4833 ,,,3405 S. Hammons Blvd,Joplin,MO,64804,,Services children and teens                    ages 12 - 18
Behavioral Health,,Behavioral Health,Mt. Hope Christian Counseling,417-324-1795,,,2830 Mt. Hope Road,Webb City,MO,64870,https://www.mthope.church/counseling,"Our counselors draw upon their professional training, formal education and experiences to address the unique mental, emotional, spiritual and relational needs of each person.
 While we are committed to a Christian perspective in approaching mental health issues, we are also sensitive to perspectives of others and those who do not identify with the faith."
Behavioral Health,,Behavioral Health,Ozark Center,417-347-7600,417-347-7720,,1105 E. 32nd Street,Joplin,MO,,,"Ozark Center offers many programs and services to help you and your family overcome behavioral or mental health difficulties. If you or a loved one has problems that interfere with doing your best at home, school or work call to make an appointment."
Behavioral Health,,Behavioral Health,Restoration Counseling Services,417-208-9498,,,712 E. 32nd St,Joplin,MO,64801,https://www.facebook.com/brianfidlercounseling,No website to look up services.  However they have a Facebook account
Behavioral Health,,Behavioral Health,Thompson and McGregor,417-627-9968,,,2004 S Joplin Ave,Joplin,MO,64804,https://www.facebook.com/pages/Thompson-McGregor/103873596345747,No website to look up services.  However they have a Facebook account
Behavioral Health,,Behavioral Health,Crawford County Mental Health,620-232-7283,,,911 E. Centennial,Pittsburg,KS,66762,http://www.crawfordmentalhealth.org,Mental health and substance abuse services.
Behavioral Health,,Behavioral Health,Spring River Mental Health & Wellness,620-848-2300,,,6610 SE Quakervale Rd,Riverton,KS,66770,www.springrivermh.org,Mental health and substance abuse services.
Behavioral Health,,Behavioral Health,Grand Lake Mental Health Services - Afton Office,918-257-4244,,,138 S. Main,Afton,OK,74331,,"Grand Lake Mental Health Care offers a variety of programs and services for individuals age four throughout lifespan. We provide outpatient services which include Individual Therapy, Family Therapy, Group Therapy, Individual Rehabilitation, Group Rehabilitation, Case Management Services, and Medication Management Services. Programs offered for children and adolescents who have increased behavioral health issues is Systems of Care / Wraparound Services. Other programs we offer on a limited basis include Mental Health Court and Temporary Assistance for Needy Families."
Behavioral Health,,Behavioral Health,Grand Lake Mental Health Services - Delaware County Office,918-786-4434,,,1115 Har-Ber Road,Grove,OK,74345,,"Grand Lake Mental Health Care offers a variety of programs and services for individuals age four throughout lifespan. We provide outpatient services which include Individual Therapy, Family Therapy, Group Therapy, Individual Rehabilitation, Group Rehabilitation, Case Management Services, and Medication Management Services. Programs offered for children and adolescents who have increased behavioral health issues is Systems of Care / Wraparound Services. Other programs we offer on a limited basis include Mental Health Court and Temporary Assistance for Needy Families."
Behavioral Health,,Behavioral Health,Grand Lake Mental Health Services - Ottawa County Office,918-540-1411,918-540-1511,,111 S. Treaty Road,Miami,OK,74354,,"Grand Lake Mental Health Care offers a variety of programs and services for individuals age four throughout lifespan. We provide outpatient services which include Individual Therapy, Family Therapy, Group Therapy, Individual Rehabilitation, Group Rehabilitation, Case Management Services, and Medication Management Services. Programs offered for children and adolescents who have increased behavioral health issues is Systems of Care / Wraparound Services. Other programs we offer on a limited basis include Mental Health Court and Temporary Assistance for Needy Families."
Behavioral Health,,Behavioral Health,Grand Lake Mental Health Services - Nowata Office,918-273-1841,,,114 W. Delaware,Nowata,OK,74048,,"Grand Lake Mental Health Care offers a variety of programs and services for individuals age four throughout lifespan. We provide outpatient services which include Individual Therapy, Family Therapy, Group Therapy, Individual Rehabilitation, Group Rehabilitation, Case Management Services, and Medication Management Services. Programs offered for children and adolescents who have increased behavioral health issues is Systems of Care / Wraparound Services. Other programs we offer on a limited basis include Mental Health Court and Temporary Assistance for Needy Families."
"Birth Control,  Pregnancy Counseling  &  Information",,"Birth Control,  Pregnancy Counseling  &  Information",4UTesting,417-621-1006,,,3929 E 7th St,Joplin,MO,64801,,Free pregnancy test.
"Birth Control,  Pregnancy Counseling  &  Information",,"Birth Control,  Pregnancy Counseling  &  Information",Access Family Care,417-659-9100,,,530 Maiden Lane,Joplin,MO,64804,,Comprehensive medical services. Medicaid accepted. Fees based on income. Bilingual staff. Call for additional information.
"Birth Control,  Pregnancy Counseling  &  Information",,"Birth Control,  Pregnancy Counseling  &  Information",Access Family Care - Neosho,417-451-4447,,,412 W. McKinney,Neosho,MO,64850,,
"Birth Control,  Pregnancy Counseling  &  Information",,"Birth Control,  Pregnancy Counseling  &  Information",Care Net Pregnancy Resource Center - Neosho,417-455-0100,,,1015 S. Neosho Blvd,Neosho,MO,64850,,"Free pregnancy test, peer counseling, pregnancy education"
"Birth Control,  Pregnancy Counseling  &  Information",,"Birth Control,  Pregnancy Counseling  &  Information",Catholic Charities of Southern MO,417-624-3790,,,403 E. 4th Street,Joplin,MO,64801,,Pregnancy Counseling
"Birth Control,  Pregnancy Counseling  &  Information",,"Birth Control,  Pregnancy Counseling  &  Information",Catholic Charities of Southern MO (Crisis Maternity Home) ,417-720-4213,,,424 Monastery Road,Springfield,MO,65807,,Crisis Maternity Home
"Birth Control,  Pregnancy Counseling  &  Information",,"Birth Control,  Pregnancy Counseling  &  Information",Choices Medical Services- Carthage,417-388-3434,,,2337 Fairlawn Ave,Carthage,MO,64836,,"Confidential services for men & women, STD Testing & Treatment, Pregnancy Tests, Accurate Information on Pregnancy options, Limited Ultrasounds, Referrals, Parenting classes available.  Free baby basket of all new baby items for new moms that are existing patients through pregnancy."
"Birth Control,  Pregnancy Counseling  &  Information",,"Birth Control,  Pregnancy Counseling  &  Information",Choices Medical Services - Joplin,417-624-8030,,,531 E. 7th St,Joplin,MO,64801,,
"Birth Control,  Pregnancy Counseling  &  Information",,"Birth Control,  Pregnancy Counseling  &  Information",Light House ,816-361-2233,,,400 W Meyer Blvd,Kansas City,MO,64113,,Alternative to Abortion-Care for mothers and unborn babies.  Education program provided.
"Birth Control,  Pregnancy Counseling  &  Information",,"Birth Control,  Pregnancy Counseling  &  Information",Planned Parenthood,417-781-6500,,,710 Illinois,Joplin,MO,64801,,"Birth Control, Pap Smears, Well Woman STD Test Infections"
"Birth Control,  Pregnancy Counseling  &  Information",,"Birth Control,  Pregnancy Counseling  &  Information",Mother to Mother,620-232-2004,,,415 N. Pine,Pittsburg,KS,66762,,Family support and education
"Birth Control,  Pregnancy Counseling  &  Information",,"Birth Control,  Pregnancy Counseling  &  Information",Cherokee County Health Department,620-429-3338,,,110 East Walnut Street,Columbus,KS,66725,,http://cherokeecountyks.gov/main/departments/health-department/services
"Birth Control,  Pregnancy Counseling  &  Information",,"Birth Control,  Pregnancy Counseling  &  Information",Oklahoma Family Planning Program ,405-419-4150,918-594-4704,,,,OK,,https://www.ok.gov/health/Family_Health/Maternal_and_Child_Health_Service/Perinatal_and_Reproductive_Health_/Family_Planning_and_Birth_Control/index.html,The Oklahoma Family Planning Program is devoted to providing family planning services to males and females of reproductive age.
"Birth Control,  Pregnancy Counseling  &  Information",,"Birth Control,  Pregnancy Counseling  &  Information",Pregnancy Center,918-456-4440 ,,,1009 S Muskogee Ave,Tahlequah,OK,74464,,Pregnancy counseling and information services
"Birth Control,  Pregnancy Counseling  &  Information",,"Birth Control,  Pregnancy Counseling  &  Information",Office of Women's Health - US Department of Health and Human Services,1-800-994-9662,,,,,,,https://www.womenshealth.gov/a-z-topics/birth-control-methods,"Monday - Friday, 8am-5pm. OWH and the OWH helpline do not see patients and are unable to: diagnose your medical condition; provide treatment; prescribe medication; or refer you to specialists. The OWH helpline is a resource line. The OWH helpline does not provide medical advice."
Cancer Patient Resources,,Cancer Patient Resources,American Cancer Society,416-624-6808,417-347-4000,,3415 McIntosh Circle Dr.,Joplin,MO,64804,www.cancer.org,"At the American Cancer Society, we're on a mission to free the world from cancer. Until we do, we'll be funding and conducting research, sharing expert information, supporting patients, and spreading the word about prevention. All so you can live longer — and better."
Cancer Patient Resources,,Cancer Patient Resources,Breast Cancer Foundation of the Ozarks,417-862-3838,,,"620 W Republic Rd, Ste 107",Springfield,MO,65807,,"Since 2000, Breast Cancer Foundation of the Ozarks (BCFO) has provided help and hope to families facing breast cancer. Located in southwest Missouri, BCFO works with local communities to improve breast cancer screening rates and provide breast cancer families with the financial and emotional support they need.
"
Cancer Patient Resources,,Cancer Patient Resources,Mercy Life Line ,417-820-5379,,,1235 E. Cherokee Street,Springfield,MO,,,"Mercy Life Line provides safe, rapid air transport for emergency patients throughout Missouri, Kansas, Oklahoma and Arkansas. "
Cancer Patient Resources,,Cancer Patient Resources,Wings of Hope,800-448-9487,636-573-1302,,18370 Wings of Hope Boulevard                                       ,St. Louis,MO,63005,info@wingsofhope.ngo,"Wings of Hope is a global humanitarian nonprofit organization that has been helping the world’s most vulnerable communities since 1962. As our name suggests, we use our wings to connect people to the resources they need to meet their development goals.    Wings of Hope changes and saves lives through the power of aviation.     We work on a global scale to help vulnerable communities access the basic resources essential for human dignity."
Cancer Patient Resources,,Cancer Patient Resources,CBCI Cancer Support Group,,,,,,MO,,,(All Cancer Dx)  Held the 2nd Wednesday of each month from 2pm-3pm at CBCI
Cancer Patient Resources,,Cancer Patient Resources,Pink Hope Express Support Group,417-347-2662 ,,,102 Castle Dr,Joplin,MO,64804,,Breast Cancer. Held the 1st Tuesday of the month from 4:30pm-6pm.  Contact Jennifer Hargis. All Aboard Ice Cream Reddings Mill 
Cancer Patient Resources,,Cancer Patient Resources,Prayer and Praise Cancer Support Group at Forest Park Church,417-623-4606 ,,,7th and Rangeline Road,Joplin,MO,64801,fox.jan@hotmail.com,Tuesdays from 6:30 pm - 7:30 pm. Contact: Melissa. 
Cancer Patient Resources,,Cancer Patient Resources,Bosom Buddies Neosho Breast Cancer Support Group -Contact is Donna,417-451-4880,417-312-1027,,,,MO,,, 2nd Monday of each month at 6pm at Mazzio’s Pizza
Cancer Patient Resources,,Cancer Patient Resources,GYNCA at Joplin Public Library,417-623-7953,,,1901 E. 20th Street,Joplin,MO,64804,www.gynca.org,(GYN Cancers) meets quarterly at the Joplin Public Library (Dates for 2020 TBD)
Cancer Patient Resources,,Cancer Patient Resources,Kansas Angels Among Us,620-231-6337,,,502 W. 540th Avenue,Pittsburg,KS,66762,,Assistance for cancer patients.
Cancer Patient Resources,,Cancer Patient Resources,"Angel Flight, Inc.",918-749-8992,,,12345 East Skelly Drive,Tulsa,OK,,,"Angel Flight Oklahoma was created by a group of pilots who believe in the benefit of volunteering. We strive to keep all aspects of the organization volunteer. We are a non-profit charitable organization of pilots, volunteers, and friends that are proud to serve the heartland area of Oklahoma, Texas, Arkansas, Missouri, and Kansas. We will arrange free air transportation for any legitimate, charitable, medically related need. This service is available to individuals and to health care organizations. We will also arrange transportation of those people who are financially distressed, or who are in a time-critical, non-emergency situation due to their medical condition."
Cancer Patient Resources,,Cancer Patient Resources,Air Compassion for Veterans (Mercy Medical Airlift),888-662-6794,800-675-1405,,"4620 Haygood Road, Suite 1",Virgina Beach,VA,,Aircompassionforveterans.org,Angel Wings for Veterans® administers charitable airline ticket programs for patients and patient escorts on behalf of various major airlines. Ambulatory patient travel exceeding 750 miles necessitates the use of airline resources. Special circumstances can make it advisable to use these programs for even shorter distances. AW4Vets personnel are highly experienced in these diverse and often changing airline patient ticket programs.                                                        Our ground transportation program ensures travel for veterans and their families by providing gas cards and commercial bus or Amtrak tickets. Patients (with or without escort) must be ambulatory and require no medical monitoring or care en route. These trips are for non-local medical care over 50 miles and the typical trip does not exceed 300 miles.
Cancer Patient Resources,,Cancer Patient Resources,Corporate Angel Network - Westchester County Airport,914-328-1313,,914-328-3938,1 Loop Road ,White Plain,NY,,,Provides transportation of cancer patients for treatment across U.S. at no cost using empty seats on corporate jets.
Cancer Patient Resources,,Cancer Patient Resources, National Cancer Institute,,,,,,,,www.cancer.gov,
Cancer Patient Resources,,Cancer Patient Resources, National Lymphedema Network,,,,,,,,www.lymphnet.org,
Cancer Patient Resources,,Cancer Patient Resources, American Cancer Society,,,,,,,,www.cancer.org,
Cancer Patient Resources,,Cancer Patient Resources, CancerCare,,,,,,,,www.cancercare.org ,
Cancer Patient Resources,,Cancer Patient Resources, Cancer Support Community,,,,,,,,www.cancersupportcommunity.org,
Cancer Patient Resources,,Cancer Patient Resources, Lung Cancer,,,,,,,,"https:// lungcanceralliance.org 
resources and support.",
Cancer Patient Resources,,Cancer Patient Resources, Head & Neck Cancer,866-916-5107,,,,,,,"On-line Support Community
 www.headandneck.org  ",Can help with Gas Care (BP/EXXON)
Cancer Patient Resources,,Cancer Patient Resources, GYN Cancers,,,,,,,,https://www.gynca.org ,"GYNCA can help with gas cards, mentors, support, wigs"
Cancer Patient Resources,,Cancer Patient Resources," Leukemia, Lymphoma, Myeloma’s",,,,,,,,"
http://www.lls.org/  
",Leukemia & Lymphoma Society (Insurance Premium Program – BK) / Booklets. Currently helps with $100 one time for patients or $500 for those in a clinical trial who meet income guidelines.  Various times can help with transportation assistance.
Cancer Patient Resources,,Cancer Patient Resources,Children’s Leukemia Research Association,,,,,,,,https://www.childrensleukemia.org/ ,Open to adults and children with any type of leukemia; co-pay assistance programs available
Cancer Patient Resources,,Cancer Patient Resources, Colorectal Cancer Alliance,,,,,,,, https://www.ccalliance.org/,
Cancer Patient Resources,,Cancer Patient Resources, Blue Hope Financial Assistance,,,,,,,,,One-time only $200 stipend to cover treatment-related expenses for those currently in treatment for colon or rectal cancer.
Cancer Patient Resources,,Cancer Patient Resources, Meredith’s Miracle,,,,,,,, http://merediths-miracles.org/,Help with financial support to those under 40 who are dx with colon cancer.
Cancer Patient Resources,,Cancer Patient Resources, Colon Cancer Alliance Buddy Project,877-422-2030,,,,,,,,
Cancer Patient Resources,,Cancer Patient Resources, American Cancer Society,,,,,,,,www.cancer.org  ,"Hope Lodge 
(Kansas City and St. Louis)/Hotels"
Cancer Patient Resources,,Cancer Patient Resources, Cancercare,,,,,,,, https://www.cancercare.org/financial,"Open funds vary with diagnoses; typically available for women.  Information, literature, on-line support groups, phone counseling."
Cancer Patient Resources,,Cancer Patient Resources, Vernon County Cancer Relief (VCCR),,,,,,,,http://vernoncountycancerrelief.org/,"Can assist with gas, bills, etc."
Cancer Patient Resources,,Cancer Patient Resources, Tenaciously Teal,,,,,,,,www.tteal.org,Can help with gas card or groceries for those residing in Oklahoma.
Cancer Patient Resources,,Cancer Patient Resources," First National Bank in Grove, Vinita and Miami",,,,,,,,,May have some funds for assistance for those in that area.
Cancer Patient Resources,,Cancer Patient Resources, Allyson Whitney Foundation “Life Interrupted Grant”,,,,PO BOX 586,Rock Hill,NY,12775,grants@allysonwhitney.org,"A non-profit organization that empowers and fights for the interest of young adults with rare cancers.  Our vision is to improve the quality of life, as well as provide emotional support for our patients.  Allyson Whitney Foundation primarily provides individuals with “life interrupted grants” to ease financial burden so that they can concentrate their energy on healing."
Cancer Patient Resources,,Cancer Patient Resources, David Andrew “Pooh” Maddan Foundation (AKA DAM-Cancer Foundation),,,,PO BOX 13386,Palm Desert,CA,92255,www.DAM-Cancer.org,Focused on providing financial assistance to young adults diagnosed with cancer and to fund innovative cancer treatments and research.
Cancer Patient Resources,,Cancer Patient Resources, Cleaning for a Reason,877-337-3348,,,,,,,cleaningforareason.org,Two free home cleanings for patients in active cancer treatment by professional residential cleaning services
Cancer Patient Resources,,Cancer Patient Resources, Gateway to Hope,,,,,,,,http://www.gthstl.org/ ,Helps with Insurance Premiums; active treatment.  Income guidelines must be met.
Cancer Patient Resources,,Cancer Patient Resources, Susan G. Komen,1-877-465-6636,,,,,,,www5.komen.org,"Financial assistance is granted to women who meet pre-determined eligibility criteria. To learn more about this program and other helpful resources, call the Komen Breast Care Helpline at 1-877 GO KOMEN (1-877-465-6636).  "
Child Care Providers,,Child Care Providers,Child Care Aware,1-800-743-8497,,,,,,,www.mo.childcareaware.org,Links to various childcare services/providers
Child Care Providers,,Child Care Providers,Dept. of Social Services - Child Care,417-629-3050,855-373-4636,,601 Commercial,Joplin,MO,64801,,"Can help with payment to child care provider.  Must meet income requirement, working at a job, and have a child 13 years of age or younger.  (going to school or health reasons)"
Child Care Providers,,Child Care Providers,YMCA,417-781-9622,,,3404 McIntosh Cir,Joplin,MO,64804,,After school and summer programs for ages 4 - 13 years of age.  Financial aid available.
Child Care Providers,,Child Care Providers,KACCRRA Kansas Association of Child Care Resource and Referral Agencies,1-877-672-2548,,,P.O. Box 2294,Salina,KS,67402,www.kaccrra.org,Information about local child care providers
Child Care Providers,,Child Care Providers,Oklahoma Child Care Locator,,,,,,OK,,http://childcarefind.okdhs.org/childcarefind/,Oklahoma Department of Human Services online child care locator
Child Care Providers,,Child Care Providers,Oklahoma Child Care Resource and Referral Association,1-888-962-2772,,,,,OK,,https://www.oklahomachildcare.org ,Links to various child care services and providers
Counseling Services,,Counseling Services,Allied Mental Health,417-876-7676,,,118 North Main Street,El Dorado Springs,MO,64744,,Counseling services.
Counseling Services,,Counseling Services,Allied Mental Health,417-682-5757,,,1107 Broadway St,Lamar,MO,64759,,Counseling services.
Counseling Services,,Counseling Services,Allied Mental Health,417-843-2130,,,148 Main St,Liberal,MO,64762,,Counseling services.
Counseling Services,,Counseling Services,Allied Mental Health,417-684-2644,,,129 N Main St,Nevada,MO,64772,,Counseling services.
Counseling Services,,Counseling Services,Applied Psychological Services,417-627-9601,,,"2700 N. Rangeline, Suite 101",Joplin,MO,64801,www.apsjoplin.com,"Provides individual and family counseling for adults and children, as well as personality disorder testing, IQ, educational testing, and any other general psychological evaluations."
Counseling Services,,Counseling Services,Behavior Management Associates,417-782-1910,,,2702 Cunningham Ave. Ste A,Joplin,MO,64804,www.behaviormgt.com,Psychologist Office
Counseling Services,,Counseling Services,BHG Joplin Treatment Center,417-782-7966,,,2919 E. 4th St,Joplin,MO,64801,,Substance use treatment and counseling.
Counseling Services,,Counseling Services,Central Christian Center,417-781-5982,,,410 S. Virginia,Joplin,MO,64801,,"Spiritual Counseling for life issues such as marriage, substance abuse, families or individuals. "
Counseling Services,,Counseling Services,Christian Counseling Center,417-624-9659,,,"2810 Mount Hope Road,",Webb City,MO,64870,,"Therapy, Individual adjustment, child & family counseling, crisis grief counseling, couples communication and stress management, divorce recovery groups, two support groups.  Sliding scale based on annual income $60.00 - $95 / session.  Files for Medicaid."
Counseling Services,,Counseling Services,Clark Center Mental Health,417-235-6610,800-801-4405,,1701 N. Central,Monett,MO,65708,,Case management and Life Skills Training
Counseling Services,,Counseling Services,Clark Center Mental Health,417-476-1000,,,104 W Main St,Pierce City,MO,65723,,Crisis Services.  Case Management.  Outpatient services. Counseling and behavioral health support.
Counseling Services,,Counseling Services,College Skyline Center,417-782-1443,,,1230 N. Duquesne Rd,Joplin,MO,64801,,"One on one counseling, Adoption support, Anger management."
Counseling Services,,Counseling Services,Community Counseling Center of Joplin,417-781-7706,,,2401 North Main Street,Joplin,MO,64801,,"Couples Counseling. Alternate address: 1102 W. 9th St, Joplin, MO  64801"
Counseling Services,,Counseling Services,Counseling Associates of the Four States,417-627-9994 ,,,705 W 26th St,Joplin,MO,64804,www.counselingjoplin.com,"Individual, Marital, relationship, family, & group counseling"
Counseling Services,,Counseling Services,Cox North Children Psychiatric Hospital,417-269-3000,,,1423 N Jefferson Ave,Springfield,MO,65803,,"Psychiatric Hospital and Treatment center for children, adolescents and seniors."
Counseling Services,,Counseling Services,Dr. Frisbie & Dr. Gerhart,417-624-4475,,,2914 E. 32nd St. Ste. 307,Joplin,MO,64804,,"Counseling, ADHD testing and other Assessment Testing;   Accepts Medicaid, Medicare and other insurances.  Also Sliding Fee Scale."
Counseling Services,,Counseling Services,Freeman Inpatient Adult Stephens Unit  ,417-347-5800,,,"932 E 34th St,",Joplin,MO,64804,,Inpatient adult psychiatric care.
Counseling Services,,Counseling Services,Freeman Senior Serenity Geropsychiatric unit ,417-347-7000,,,932 E. 34th St.,Joplin,MO,64804,,"Inpatient adult psychiatric care for senior citizens who need help with memory disorders, Alzheimer’s disease, depression and other mental health changes associated with aging."
Counseling Services,,Counseling Services,Healing the Family Counseling Center,417-624-8333,,,"2914 E 32nd St, Ste 308",Joplin,MO,64804,,"Child therapy, ADD tutoring Child Behavior Mgmt. Groups, Parenting Classes, Anger Mgmt., Individual counseling, Marriage, Couples, Adult & Family Counseling, and Adult Survivor Groups."
Counseling Services,,Counseling Services,Heartland Behavioral Health Services,1-800-654-9605,,,1500 W Ashland St,Nevada,MO,64772,,Pediatric residential treatment and acute hospitalization for Ages 4-17.
Counseling Services,,Counseling Services,Herndon Snider & Associates,417-623-1381,,,2650 E. 32nd St. Ste. 221,Joplin,MO,64804,,"Counseling, Psych/Educ. Testing"
Counseling Services,,Counseling Services,House of Hope,417-624-4833,,,614 S. Wall,Joplin,MO,64801,,In/Out-patient counseling for teenagers
Counseling Services,,Counseling Services,Lafayette House,417-782-1772,,,1809 Connor Avenue,Joplin,MO,64804,,SATOP & REACT Screening
Counseling Services,,Counseling Services,Lakeland Behavioral Health System,844-868-8360,,,440 S Market Ave,Springfield,MO,65806,,"Psychiatric Hospital and Treatment center for children, adolescents and seniors."
Counseling Services,,Counseling Services,Lost & Found (The Connor House),417-865-9998,,,1006 N. Cedarbrook Ave,Springfield,MO,65802,,"Free grief counseling, limited gas vouchers to help w/cost of travel"
Counseling Services,,Counseling Services,Mercy Behavioral Health Services,417-625-2354,417-781-7337,,5615 W 32nd St,Joplin,MO,64804,,Adult In/Out Patient Behavioral Health
Counseling Services,,Counseling Services,MO Dept. of Mental Health,1-800-364-9687,,,,,MO,,dmh.mo.gov,"Psych Services, Developmental, Addictions Housing"
Counseling Services,,Counseling Services,Mt. Hope Christian Counseling,417-324-1795,,,2830 Mt. Hope Road,Webb City,MO,,https://www.mthope.church/counseling,"Our counselors draw upon their professional training, formal education and experiences to address the unique mental, emotional, spiritual and relational needs of each person.
 While we are committed to a Christian perspective in approaching mental health issues, we are also sensitive to perspectives of others and those who do not identify with the faith."
Counseling Services,,Counseling Services,NAMI Joplin  (National Alliance on Mental Illness),417-781-6264,,,1601 S. Wall,Joplin,MO,,,"Self-help, support, and advocacy organization for individuals w/mental illness & their families/friends. Alternate address: 2701 Davis Blvd., Joplin, MO 64804"
Counseling Services,,Counseling Services,Options Outpatient Counseling,417-782-7700,417-782-7600,,2401 North Main,Joplin,MO,,,"Alternate address: 1515 W. 10th St., Suite E, Joplin, MO. Individual, Group & Family, Marriage therapy.  Mental health testing and evaluation.  Education / career testing - substance abuse screening & counseling.  Employee assistance program."
Counseling Services,,Counseling Services,Ozark Center,417-347-7600,,,1105 E. 32nd St,Joplin,MO,,,"Individual, Group, Family & Marriage counseling.  Substance abuse.    In / Out Children and Adult Services"
Counseling Services,,Counseling Services,Ozark Center - Will's Place,417-347-7580,,,1800 W. 30th St,Joplin,MO,,,Open Access intake assessments 8-5 MWF for Medicaid eligible children 18 and under
Counseling Services,,Counseling Services,Parenting Solutions,417-623-2345,,,2906 S Main St,Joplin,MO,,,"Counseling, parent aids, parenting classes"
Counseling Services,,Counseling Services,Preferred Family Healthcare, 417-626-0008,,,710 S Maiden Ln,Joplin,MO,,,"Focus on Drug treatment/Mental Health  of youth ages 12- 17.  Ed groups available, limited transportation to group / Counseling available."
Counseling Services,,Counseling Services,Psychiatric Care Service,417-667-2666,,,1500 W. Ashland,Nevada,MO,,,"Individual, family, marriage, group therapy, child evaluations diagnosis & consultation, psychological eval, aftercare from hospitalization, crisis intervention, grief counseling and much more."
Counseling Services,,Counseling Services,Psychological Associates,417-624-7002,,,1840 N. Rangeline Rd,Joplin,MO,,,"Counseling, Mental Health, Substance Abuse, Marriage, etc."
Counseling Services,,Counseling Services,"Royal Oaks, Children Psychiatric Hospital ",417.456.2634,,,307 N Main St,Windsor,MO,,,"Serve all acute behavioral health care inpatient needs for children, adolescents and adults 24 hours a day, 7 days a week."
Counseling Services,,Counseling Services,Southern Light Counseling,417-781-4552,,,707 S. Pearl,Joplin,MO,,,"  In home therapy, family, grief counseling available, Supervised Visitation, Parent Skills Training and in office Trauma Autism services.  Children spiritual direction."
Counseling Services,,Counseling Services,Stephens Adult Inpatient Psychiatric Unit,417-347-5800,,,932 E. 34th St,Joplin,MO,,,"To access, go to ER at Freeman West"
Counseling Services,,Counseling Services,Thompson & McGregor,417-627-9968,,,1105 E 32nd St Ste 4,Joplin,MO,,,Therapists/Psychologists
Counseling Services,,Counseling Services,SIDS Resources Inc.,314-241-7437,800-421-3511,,"120 S. 6th Street, Ste. 500",St. Louis,MO,,http://infantlossresources.org/  ,Contact: Sara Tamburrino STamburrino@sidsresources.org. Bereavement Support after sudden and unexpected death of a baby up to 1 year of age.  St. Louis is main office but services are provided for Southwest and Southcentral Missouri
Counseling Services,,Counseling Services,Turnaround Ranch Youth residential ,417-347-7860,,,1949 S Snowberry Ln,Joplin,MO,,,"Turnaround Ranch, a 72-bed residential treatment facility for adolescents ages 10–18, provides 24-hour care for youths experiencing emotional and behavioral problems."
Counseling Services,,Counseling Services,Children's Advocacy Center,620-235-0067,,,123 W Adams,Pittsburg,KS,,,Prevention of childhood abuse
Counseling Services,,Counseling Services,Crawford Mental Health,620-231-5130,,,911 E. Centennial,Pittsburg,KS,,,"Adult Services, Substance Abuse Services, Crisis Services Available and Children's Services"
Counseling Services,,Counseling Services,Counseling and Recovery Services of Oklahoma,918-492-2554 ,,,"7010 South Yale, Ste 215",Tulsa,OK,,,Helping build better lives through behavioral health and substance abuse services.
Counseling Services,,Counseling Services,Preferred Family Healthcare,918-675-4032,,,900 A St,Commerce,OK,,,"Focus on Drug treatment/Mental Health  of youth ages 12- 17.                    Ed groups available, limited transportation to group / Counseling available."
CAMP-College Assistance Migrant Program,,Cultural Needs,Crowder College,417-455-5654,,,601 Laclede,Neosho,MO,64850,,"CAMP provides financial assistance for tuition, student fees, textbooks, room and board and a monthly stipend to off-set personal needs."
Cultural Needs,,Cultural Needs,American Civil Liberties Union of Kansas & WMO,816-756-3113                              ,913-490-4100 ,,P.O. Box 917,Mission,KS,66201, https://www.aclukansas.org/en,Defend and preserve the individual rights and liberties guaranteed by the Constitution and laws of the United States.
Cherokee Nation,,Cultural Needs,W.W. Keeler Tribal Complex ,800-256-0671,,,17675 S. Muskogee Ave.,Tahlequah,OK,74464,https://www.cherokee.org/,"As a government, the Cherokee Nation provides a number of important services to its citizens and to other Native Americans. "
"Deaf - Hearing Services, Developmental Disabilities",,"Deaf - Hearing Services, Developmental Disabilities",Alternative Opportunities,417-659-9911,,,2709 W 13th Street,Joplin,MO,64804,,"Specialized services for people who are deaf or hard of hearing; Learning, physical, or mental disabilities evaluated"
Deaf - Hearing Services,,Deaf - Hearing Services,Area Hearing & Speech Clinic,417-781-2311,,,2311 S. Jackson,Joplin,MO,64804,,Complete audiological services for adults & children.                                       Accepts Missouri Medicaid for those under 21 yrs old   Speech Therapy
Deaf - Hearing Services,,Deaf - Hearing Services,Children's Miracle Network,417-347-6639    ,417-347-3793,,1102 W. 32nd Street,Joplin,MO,64804,,Hearing Aids.  Must apply for funding.  Call for more info.  
Deaf - Hearing Services,,Deaf - Hearing Services,Starkey Hearing Foundation,866-354-3254,,,"6801 Washington Ave S, Ste 200",Minneapolis,MN,55439,,Starkey Hearing Foundation gives the gift of hearing to people in need in the U.S. and around the world.
Midwest Ear Institute,,Deaf - Hearing Services,St. Luke's Hospital,816-932-1660,,,"4320 Wornall Rd, #420",Kansas City,MO,64111,stlukeskc.org,"Offer patients the full range of hearing restoration services, from comprehensive diagnostics to hearing and balance treatment and our acclaimed cochlear implant program."
Show Me Loans,,Deaf - Hearing Services,Missouri Assistive Technology,800-647-8557,,,,,,,at.mo.gov,"1) Adaptive Phones for Vision and Hearing and Mobility Challenges.   Needs met for home phones and cell phones or Ipads.                                                 2) Adaptive Computer Needs                                   3) Adaptive Loans - If qualify can get in 3 weeks.   2 - 4 % interest on the loan.                                                             4) Vehicle Loans - for specialized vehicles.                                                          5) ""Money follow the Person"" - If qualify - $5000 grant to help them get home from nursing facilities after 60 / 90 day stay.                                                 6) Assisted Technology Kids Grant for people under 20 years old."
Deaf - Hearing Services,KCDHH,Deaf - Hearing Services,The Kansas Commission for the Deaf and Hard of Hearing (1),620-429-3014,800-766-3777,,215 East Maple                                                                                                                     ,Columbus  ,KS,66725,,"The mission of KCDHH is to advocate for and facilitate equal access to quality, coordinated and comprehensive services that enhance the life of Kansans who are deaf and hard of hearing. KCDHH offers technical assistance, advocacy, information and referral, sign language interpreter registration, coordination of interpreting services, and the Kansas Quality Assurance Screening (KQAS) for certification of sign language interpreters."
Deaf - Hearing Services,KCDHH,Deaf - Hearing Services,The Kansas Commission for the Deaf and Hard of Hearing (2),620-431-5000,620-431-500 x 242,,203 E. 21st Street,Chanute,KS,66720,,"The mission of KCDHH is to advocate for and facilitate equal access to quality, coordinated and comprehensive services that enhance the life of Kansans who are deaf and hard of hearing. KCDHH offers technical assistance, advocacy, information and referral, sign language interpreter registration, coordination of interpreting services, and the Kansas Quality Assurance Screening (KQAS) for certification of sign language interpreters."
Deaf - Hearing Services,TSHA,Deaf - Hearing Services,Tulsa Speech and Hearing Association,918-834-4239,888-311-3523,918-834-4329,8740 E 11th St                                                                     ,Tulsa,OK,74112,,"Community resource agency providing services to those who are deaf, hard of hearing, affected by hearing loss or just an interested party. "
Deaf and Hard of Hearing Services,,Deaf - Hearing Services,Oklahoma Department of Rehabilitation Services,918-836-5556,,918-835-2358,"8740 E 11th Street, Suite F",Tulsa,OK,,,"DRS services for those with hearing loss include a variety of programs and informational services. We provide services to individuals who are Deaf, hard of hearing, late-deafened, deaf-blind and those with speech impairments. "
Affordable Hearing Aid Project,,Deaf - Hearing Services,Lion's Club,630-203-3837,,,300 W. 22nd Street,Oak Brook,IL,60523,www.lcif.org,"Lions AHAP is a program of Lions Clubs International Foundation (LCIF) that provides Lions in the United States with high-quality, low-cost hearing aids for distribution to underserved populations in their service areas."
Dental Care,,Dental Care,Access Dental Clinics (1),417-782-0080,,,530 S. Maiden Lane                                                                                                                                                                                                                                                                    ,Joplin,MO,64801,www.accessfamilycare.org,"We provide full service dentistry, from general cleanings, to root canals and crowns!  If you wish to schedule a dental appointment, please call the Dental Clinic nearest you."
Dental Care,,Dental Care,Access Dental Clinics (2) (Carthage Dental Clinic),417-674-2141,,,215 E. 3rd St,Carthage,MO,64836,www.accessfamilycare.org,"Will accept all ages without insurance, will be placed on sliding scale based on income.  Medicaid for Children and Pregnant moms on Medicaid accepted."
Dental Care,,Dental Care,Access Dental Clinics (3),417-451-0977,,,516 W. McCord St.,Neosho,MO,64850,www.accessfamilycare.org,"We provide full service dentistry, from general cleanings, to root canals and crowns!  If you wish to schedule a dental appointment, please call the Dental Clinic nearest you."
Dental Care,,Dental Care,Access Dental Clinics (4),417-845-2273,,,927 N. Business 71,Anderson,MO,64831,www.accessfamilycare.org,"We provide full service dentistry, from general cleanings, to root canals and crowns!  If you wish to schedule a dental appointment, please call the Dental Clinic nearest you."
Dental Care,,Dental Care,Access Dental Clinics (5),417-549-6845,,,204 N. Cedar,Nevada,MO,64772,www.accessfamilycare.org,"We provide full service dentistry, from general cleanings, to root canals and crowns!  If you wish to schedule a dental appointment, please call the Dental Clinic nearest you."
Dental Care,,Dental Care,Access Dental Clinics (6),417-847-0057,,,4016 Main St,Cassvillle,MO,65625,www.accessfamilycare.org,"We provide full service dentistry, from general cleanings, to root canals and crowns!  If you wish to schedule a dental appointment, please call the Dental Clinic nearest you."
Dental Care,,Dental Care,Community Clinic of Joplin,417-624-5500,,,701 S. Joplin                                                                                  ,Joplin,MO,64801,,People who do not have insurance
Dental Care,,Dental Care,Joplin Health Dept.  for Children,417-623-6122,,,321 E. 4th St                                                                           ,Joplin,MO,64810,,"Child Shots, WIC"
Dental Care,,Dental Care,Mid-America Dental & Hearing,800-354-1905,,,1050 Hayward Dr                                                                 ,Mt. Vernon,MO,65712,http://www.midamericadental.com/,Denture and dental services at a reasonable price.
Dental Care,,Dental Care,Miles for Smiles ,417-328-6334,,,1500 N. Oakland                                                                    ,Bolivar,MO,65613,,Mobile dental clinic for elementary students.  Serves 3 - 18 yr olds who either are covered by Medicaid or no insurance.
Dental Care,,Dental Care,Missouri Donated Dental Services            , 866-792-9988,573-636-4440,,P.O. Box 105919,Jefferson City,MO,65110,https://dentallifeline.org/our-state-programs/    ,"Comprehensive dental care at no charge for  65 +, disabled or low income clients.  Could be up to a year wait. "
Dental Care,,Dental Care,MSSU Dental Hygiene Clinic,417-625-9711,417-625-9709 ,,3950 E. Newman Rd                                                                 ,Joplin,MO,64801,,"Students provide care and are supervised by faculty.                                    $30 Cleanings, x-rays, sealants; Children over 5 yrs. & Adults     Assessment, radiographs, preventive, periodontal treatment, and educational services."
Dental Services,,Dental Care,Southeast Kansas Community Clinic (1),620-856-2900,,,2990 Military Avenue,Baxter Springs,KS,66713,,"Community Health Center of Southeast Kansas (CHC/ SEK)  has been providing dental care since 2005. We now have dental clinics in a number of our communities that provide a variety of dental care including:                                                            •Ongoing, comprehensive dental care                                                                      •Same day urgent care
"
Dental Services,,Dental Care,Southeast Kansas Community Clinic (2),620-380-6600,,,2051 North State Street,Iola,KS,66749,,"Community Health Center of Southeast Kansas (CHC/ SEK)  has been providing dental care since 2005. We now have dental clinics in a number of our communities that provide a variety of dental care including:                                                            •Ongoing, comprehensive dental care                                                                      •Same day urgent care
"
Dental Services,,Dental Care,Southeast Kansas Community Clinic (3),620-231-6788,,,924 N. Broadway,Pittsburgh,KS,66762,,"Community Health Center of Southeast Kansas (CHC/ SEK)  has been providing dental care since 2005. We now have dental clinics in a number of our communities that provide a variety of dental care including:                                                            •Ongoing, comprehensive dental care                                                                      •Same day urgent care
"
Dental Care,,Dental Care,Tulsa Oklahoma Free Dental Care Clinics,,,,,,,,https://www.freedentalcare.us/ci/ok-tulsa,Website link is to 7 clinics that provide free or reduced cost dental care.
Dental Care,,Dental Care,Sooner Dental Care,918-742-1480,,,"3150 East 41st Street, Ste.100",Tulsa,OK,74105,,"Accept SoonerCare and all Major Insurance Providers.  
Providing excellent general dental care is the first step to ensuring our patients achieve this goal. Our general dentistry services consist of the management and overall coordination of dental services to best meet our patients oral health needs. This is usually done in two steps, an initial examination and the development of a treatment plan.
 
 
"
Dental Care,,Dental Care,Smiles4Life,918-599-8383,,,"401 S Utica Avenue, Ste A",Tulsa,OK,74104,www.smiles4lifetulsa.com,"Family dental clinic serving patients of all ages. At our office, a trip to the dentist is exactly how it should be: Fast, fun and with plenty of goodies to make your appointment even more enjoyable."
Dental Care,,Dental Care,Free Dental Care,,,,,,,,https://www.freedentalcare.us/,Website links to free and reduced cost dental clinics nationwide.
Autism Support Group,,Developmental Disabilities,Bill & Virginia Leffen Center for Autism,417-347-7850,,,3230 Wisconsin,Joplin,MO,64804,,"3rd Friday @ 8:30, 1st Tuesday @ 6:00; Provides one-to-one intensive therapy for children w/Autism, diagnostic team, special education center for children w/Autism, Out-patient therapy, Support groups, adult services"
Developmental Disabilities,,Developmental Disabilities,Department of Health - Bureau of Specia Healthcare Needs,417-673-5740                 ,417-623-6122,,321 E 4th St,Joplin,MO,64801,,"Assessment and evaluation of in home medical services children might need, this could include home nursing service or personal care nursing assistance.  Referrals also made to HOPE program, this program can assist with surgery costs, client must have medical insurance - not Medicaid - and is income based to qualify for HOPE program. "
Developmental Disabilities,,Developmental Disabilities,Camp Barnabas,417-886-9800,417-476-2565,,901 Teas Trail 2060,Purdy,MO,65734,https://www.campbarnabas.org/,"Camp Barnabas is a unique ministry providing Christian camping experiences to individuals with special needs and chronic illnesses, along with their siblings. "
Developmental Disabilities,,Developmental Disabilities,Cerebral Palsy Center,417-673-4940,,,1401 W. Austin,Webb City,MO,64870,,"For developmental disabled children -Occupational, Physical, Speech therapy - developmental skills for handicapped."
Children with Special Health Care Needs Programs,,Developmental Disabilities,Missouri Department of Health and Senior Services,573-751-6246,800-451-0669,573-751-6237,PO Box 570,Jefferson City,MO,65102,,The CYSHCN Program provides assistance statewide for children and youth with special health care needs from birth to age 21. 
Developmental Disabilities,,Developmental Disabilities,Clark Center,417-235-6610,,,1701 N. Central                                                                     ,Monett,MO,65708,,Case management and Life Skills Training
Developmental Disabilities,,Developmental Disabilities,College View Schools for Severally Disabled,417-629-3044,,,101 N. Goetz                                                                       ,Joplin,MO,64801,,Children ages 4-21
Developmental Disabilities,,Developmental Disabilities,Community Support Services,417-624-4515,,,2312 Annie Baxter                                                             ,Joplin,MO,64804,,"In-home care & support for people w/developmental disabilities. Accepts Medicaid, Early Childhood, and Behavioral Fitness."
Developmental Disabilities,,Developmental Disabilities,Connections Case Management,417-206-2886,,,1727 W. 26th St                                                                  ,Joplin,MO,64804,,"Provides case management services to those with developmental disabilities, including children and adults (Must go through Joplin Regional Center first)"
Developmental Disabilities,,Developmental Disabilities,Department of Vocational Rehabilitation,417-629-3067,,,801 E. 15th St                                                                            ,Joplin,MO,64804,,Helps adults (aged 18+) with mental and/or physical disabilities obtain & maintain employment.
Developmental Disabilities,,Developmental Disabilities,Easter Seals Midwest,417-781-3616,417-890-1399,,3909 E. 20th St                                                                                                                                         ,Joplin,MO,64801,,Autism Services /Day Services Adults                                                     Children with disabilities in 4 county area.  
Developmental Disabilities,,Developmental Disabilities,Employment Services Preferred Family Disabled Employment,417-659-9911,,,405 E 4th St                                                                                     ,Joplin,MO,64801,,Provides support system to clients with disabilities in the job search progress.  Must be approved through Vocational Habitation / Regional Center.  Have merged with Lakes Country Rehabilitation.
Developmental Disabilities,,Developmental Disabilities,First Steps & Jasper County Support Services,417-623-3243                                                             ,417-624-4515,,2313 Annie Baxter                                                                ,Joplin,MO,64804,,Education for children 3 & under. Call for more info.                                                            Work w/health & developmental disabilities.
Developmental Disabilities,,Developmental Disabilities,"(Missouri) First Step, Early Intervention",1-866-583-2392  ,417-623-3243,,2312 Annie Baxter Ave                                                     ,Joplin,MO,64804,,First Steps offers coordinated services and assistance to young children with special needs and their families. 
Developmental Disabilities,,Developmental Disabilities,Independent Living Center,417-659-8086,,,2639 34th Street                                                                 ,Joplin,MO,64804,,"Serves people with disabilities, ISL, day programs & Senior Services.  To remove barriers and encourage independence."
Developmental Disabilities,,Developmental Disabilities,Joplin Regional Center ,417-629-3020,,,3600 Newman Rd                                                               ,Joplin,MO,64804,,Resource locator for disabled persons.                                                                    Free in-home care & support for people w/developmental disabilities.
Developmental Disabilities,,Developmental Disabilities,Joplin Sheltered Workshop,417-781-2862,,,520 Michigan Ave                                                                   ,Joplin,MO,64801,,Employment for people w/disabilities. Manufacture recycling 
Developmental Disabilities,,Developmental Disabilities,Ozark Center for Autism (Bill & Virginia Leffen Center                    for Autism),,,,2808 S Picher Ave                                                                ,                                                                Joplin,MO,64804,https://www.freemanhealth.com/ozarkcenter/services/autism-services/,"Bill & Virginia Leffen Center for Autism offers gold-standard diagnostic, treatment and education services for individuals with autism spectrum disorders."
Developmental Disabilities,,Equestrian Therapy,"Trinity Circle Horse, Neosho",417-455-1200,,,7370 Marten Rd                                                                     ,Neosho,MO,64850,www.TCHHH.org,"Equine, horse therapy."
Developmental Disabilities,,Developmental Disabilities,"Special Ed. Cooperative of Barton, Dade, and Jasper Counties",417-232-4562,,,208 E 5th St                                                                              ,Lockwood,MO,65682,http://www.bdjcoop.org/,Assist local school districts in providing special education services to their students. 
Developmental Disabilities,,Developmental Disabilities,State School for the Severely Handicapped,417-629-3044,,,1101 N Goetz Blvd                                                               ,Joplin,MO,64801,https://dese.mo.gov/college-view-school,"Missouri Schools for the Severely Disabled will ensure students learn authentic skills in a safe environment to be productive and integrated into their home, community, leisure and work."
Home and Community Based Services,,Developmental Disabilities,Kansas Department for Aging and Disability Services,785-296-4983,,, 503 S Kansas Ave,"Topeka, KS 66603  ",KS,66603,,The Autism (AU) waiver provides support and training to parents of children with an Autism Spectrum Disorder (ASD) diagnosis to help ensure children with ASD can remain in their family home
Developmental Disabilities Services,,Developmental Disabilities,OK Department of Human Services,405-521-3571,,,"2400 N. Lincoln Blvd.
Oklahoma City, OK  73105",Oklahoma City,OK,73105,http://www.okdhs.org/services/dd/Pages/default.aspx,
Developmental Disabilities,,Developmental Disabilities,Developmental Disabilities Council of Oklahoma,(405) 521-4984 ,,(405) 521-4910,"2401 NW 23rd Street, Suite 74  ",Oklahoma City,OK,73107,,The Developmental Disabilities Council of Oklahoma is a place for families and individuals to connect to information when learning about a disability.
Developmental Disabilities,,Developmental Disabilities,Canine Companions for Independence,800-572-2275,,,,,,,https://www.cci.org/,Canine Companions for Independence is a non-profit organization that enhances the lives of people with disabilities by providing highly trained assistance dogs at no charge to the recipient.
Developmental Disabilities,,Developmental Disabilities,MPACT,800-743-7634,,,,,,,www.ptimpact.org,Mentor group for parents to assist their children w/special needs in the school system
Early Childhood Services,,Early Childhood Services,Cerebral Palsy Center of Tri-County,417-673-4940,,,1401 W. Austin St ,Webb City,MO,64870,,Developmental programming for infants & children w/developmental disabilities 6 months - 6 years
Early Childhood Services,,Early Childhood Services,Early Head Start,417-781-0352,,,302 Joplin Ave,Joplin,MO,64801,,"Home visiting services for prenatal women and children birth-3 yrs. old, parenting resources, child development information, socialization activities. "
Early Childhood Services,,Early Childhood Services,Early Head Start,417-451-5507,,,116 N. Jefferson                                                                   Neosho,Neosho,MO,64850,,"Home visiting services for prenatal women and children birth-3 yrs. old, parenting resources, child development information, socialization activities. "
Early Childhood Services,,Early Childhood Services,Family Literacy Council,417-358-5926,,,,,MO,,https://www.facebook.com/CarthageFamilyLiteracyCouncil/,Program that promotes early reading to babies and young children.
Early Childhood Services,,Early Childhood Services,First Steps,417-623-3243,,,2312 Annie Baxter,Joplin,MO,64804,,Provide in home services for children birth to 3 yrs. old who have been diagnosed w/a developmental delay.  Some fees may apply.  
Early Childhood Services,,Early Childhood Services,Head Start - Economic Security,417-781-4497,,,1200 N. Main St ,Joplin,MO,64801,,"Preschool services for children 3-5 yrs. old typically from low income families, parenting resources, resource referral."
Early Childhood Services,,Early Childhood Services, Mothers of Preschoolers,888-910-6677,,,,,MO,,www.facebook.com/JoplinMOPS ,"Play groups and socialization for children/mothers of young children. Breakfast served, speaker, & creative activity two times a month."
Early Childhood Services,,Early Childhood Services,Parents As Teachers - Joplin,417-625-5200,,,310 W. 8th ,Joplin,MO,64804,https://parentsasteachers.org,"Home Visits - child development, nutrition, parenting help."
Early Childhood Services,,Early Childhood Services,Parents As Teachers - Carthage,417-359-7102,,,1325 River   ,Carthage,MO,64836,,"Home Visits - child development, nutrition, parenting help."
Early Childhood Services,,Early Childhood Services,Parents As Teachers - Carl Junction,417-649-5709,,,206 S. Roney , Carl Junction,MO,64834,,"Home Visits - child development, nutrition, parenting help."
Early Childhood Services,,Early Childhood Services,Parents As Teachers - Granby - East Newton,417-472-6882,,,22808 MO 86 Hwy,Granby,MO,64844,,"Home Visits - child development, nutrition, parenting help."
Early Childhood Services,,Early Childhood Services,Parents As Teachers -Neosho,417-451-8632,,,201 N. Wood St,Neosho,MO,64850,,"Home Visits - child development, nutrition, parenting help."
Early Childhood Services,,Early Childhood Services,Parents As Teachers - Sarcoxie,417-548-3421,,,214 S. 11th                                                                            ,Sarcoxie,MO,64862,,"Home Visits - child development, nutrition, parenting help."
Early Childhood Services,,Early Childhood Services,Parents As Teachers - Seneca,417-776-1204,,,914 Frisco St                                                                         ,Seneca,MO,64844,,"Home Visits - child development, nutrition, parenting help."
Early Childhood Services,,Early Childhood Services,Parents As Teachers - Webb City,417-776-1204,,,914 Frisco St                                                                          ,Seneca,MO,64844,,"Home Visits - child development, nutrition, parenting help."
Early Childhood Services,,Early Childhood Services,The Alliance of Southwest Missouri,417-673-6000,,,411 Madison                                                                           ,Webb City,MO,64870,,"Home Visits - child development, nutrition, parenting help."
Early Childhood Services,,Early Childhood Services,The Alliance of Southwest Missouri,417-782-9899,,,1601 S. Wall Ave ,Joplin,MO,64804,,"Home Visiting program for families with children under 3 who meet eligibility requirements.  Various programs in the areas of health, safety, prevention and education for families"
Early Childhood Services,,Early Childhood Services,Birth to Three,620-724-628/1,,,947 W. 47 Hwy                                                                       ,Girard,KS,66743,,Early intervention services for infants & toddlers
Early Childhood Services,,Early Childhood Services,Family Resource Center,620-235-3150,,,1600 N. Walnut                                                                      ,Pittsburg,KS,66162,,"Child Care, Preschool and family services"
Early Childhood Services,,Early Childhood Services,Pittsburg Community Schools,620-235-3100,,,510 Deill                                                                                               ,Pittsburg,KS,66762,www.usd250.org,"Parent and student information, school calendar, school news."
Early Childhood Services,,Early Childhood Services,Educare Oklahoma City,405-605-8232,,,500 SE Grand Blvd,Oklahoma City,OK,73129,,Educare Oklahoma City helps children in the Oklahoma City Metro area aged six weeks to five years-old prepare for school.
Early Childhood Services,,Early Childhood Services,SoonerStart,405-215-2156 ,,,,,,,https://sde.ok.gov/soonerstart,SoonerStart is OklahomaÕs early intervention program. It is designed to meet the needs of families with infants or toddlers with developmental delays. In accordance with the Individuals with Disabilities Education Act (IDEA) the program builds upon and provides supports and resources to assist family members to enhance infantÕs or toddlerÕs learning and development through everyday learning opportunities.
Early Childhood Services,,Early Childhood Services,Parents as Teachers,405-271-7611,,405-271-1011,"1000 NE 10th Street, Room 707",Oklahoma City,OK,73117,,"Parents as Teachers provide voluntary home visitation and community-based services that teach positive parenting skills and connects families with resources that help families grow strong.  Upon enrollment, trained professionals will work with the parent to help ensure families will be successful.  The family will learn about parenting skills and child development. Parents as Teachers families may also be connected with needed community resources such as job training and child care."
Emergency Hotline Numbers,,Emergency Hotline Numbers,Sex Offender Registry Hotline,1-888-767-6747,,,,,,,https://www.mshp.dps.missouri.gov/MSHPWeb/PatrolDivisions/CRID/SOR/SORPage.html,Find out if there is a registered sex offender living near you.
Emergency Hotline Numbers,,Emergency Hotline Numbers,Red Cross,1-888-460-1050,,,,,,,www.redcross.org,Emergency and disaster relief services
Emergency Hotline Numbers,,Emergency Hotline Numbers,Salvation Army,620-231-4230,,,"307 E. Fifth,          ",Pittsburg,KS,66762, www.salvationarmyusa.org,"Emergency assistance, thrift store"
Emergency Hotline Numbers,,Emergency Hotline Numbers,Oklahoma Emergency Help,,,,,,,,https://oksa.ou.edu/emergency-help,Link leads to multiple emergency resource help
Emergency Hotline Numbers,,Emergency Hotline Numbers,"Abuse, Neglect and Exploitation Hotline",1-800-392-0210,,,,,,,,"Responds to reports of abuse, neglect, and financial exploitation."
Emergency Hotline Numbers,,Emergency Hotline Numbers,Methamphetamine Hotline,1-888-823-6384,,,,,,,http://drughelpline.org/meth-hotline/,Methamphetamine Hotline
Emergency Hotline Numbers,,Emergency Hotline Numbers,Missing Person Hotline,1-800-877-3452,,,,,,,http://www.missingpersonsguide.com/guide/,"Every case is different so every search is different. The police and public don't know the missing person Ñ the best judges of appropriate action will be those closest. You can't do everything, so just do the best you can with what you have."
Emergency Hotline Numbers,,Emergency Hotline Numbers,Poison Control Hotline,1-800-222-1222,,,,,,,https://aapcc.org/,"Poison control centers offer free, confidential, expert medical advice 24/7"
Emergency Hotline Numbers,,Emergency Hotline Numbers,Suicide Prevention Hotline,1-800-273-8255,,,,,,,https://suicidepreventionlifeline.org/,"The Lifeline provides 24/7, free and confidential support for people in distress, prevention and crisis resources for you or your loved ones, and best practices for professionals."
Emergency Shelters and Bathing,,Emergency Shelters and Bathing,Carthage Crisis Center,417-358-3534,,,100 S. Main St                                                                        ,Carthage,MO,,,"3 Daily Meals, Lodging, Food Baskets, Other Assistance.                                                                  Public welcome at noon if over 60 +               
Temporary emergency shelter for children in a family crisis                             (Children 0 - 17 only)
Providing a unique spectrum of behavioral health services to children and families.
Contact:  Shonna Greniger, sgreninger@escswa.org
Women & Children - shelter for domestic violence, substance abuse treatment, trainings and counseling.
Provide social services.  Feeding Program.  Disaster Services.  Christmas Assistance.
Men's & Women's Dormitories
Single adults and families
For men and women & Bathing Facility
Bathing Facilities   
Emergency food and shelter
We serve those who are experiencing or at risk for homelessness. Through our work, we treat both the symptoms and the causes of homelessness Ñ pursuing a future where every Tulsan has a home.
""Emergency Financial Assistance
Food & Nutrition Programs
Emergency Shelter
Seasonal Services
Transitional Housing
Food Pantry
Community Recreation & Education Programs""
Homeless Shelter for Men"
Emergency Shelters and Bathing,,Emergency Shelters and Bathing,Children's Haven of SWMO,417-782-4453,,,711 S. Picher                                                                       ,Joplin,MO,64801,,Temporary emergency shelter for children in a family crisis                             (Children 0 - 17 only)
Emergency Shelters and Bathing,,Emergency Shelters and Bathing,"Great Circles, Springfield",417-865-1646,,,1212 W Lombard St                                                           ,Springfield,MO,65806,,Providing a unique spectrum of behavioral health services to children and families.
Emergency Shelters and Bathing,,Emergency Shelters and Bathing,Housing Connect,417-627-2039,,,302 S. Joplin Ave                                                                  ,Joplin,MO,64801,,"Contact:  Shonna Greniger, sgreninger@escswa.org"
Emergency Shelters and Bathing,,Emergency Shelters and Bathing,Lafayette House,417-782-1772,,,1809 Connor                                                                       ,Joplin,MO,64801,,"Women & Children - shelter for domestic violence, substance abuse treatment, trainings and counseling."
Emergency Shelters and Bathing,,Emergency Shelters and Bathing,Salvation Army,417-624-4528,,,320 E. 8th St                                                                           ,Joplin,MO,64801,,Provide social services.  Feeding Program.  Disaster Services.  Christmas Assistance.
Emergency Shelters and Bathing,,Emergency Shelters and Bathing,Soul's Harbor Mission,417-623-7327 ,417-623-4358,,915 S. Main St                                                                        ,Joplin,MO,64801,,Men's & Women's Dormitories
Emergency Shelters and Bathing,,Emergency Shelters and Bathing,"Restoration Life Center, Neosho",417-455-9393                                       ,,417-456-5080,415 North High,Neosho,MO,64850,,Single adults and families
Emergency Shelters and Bathing,,Emergency Shelters and Bathing,Watered Gardens,417-623-6030,,,531 S. Kentucky,Joplin,MO,64801,,For men and women & Bathing Facility
Emergency Shelters and Bathing,,Emergency Shelters and Bathing,Joplin Family YMCA, 417-781-9622,,,3404 W McIntosh Cir Dr,Joplin,MO,64804,,Bathing Facilities   
Emergency Shelters and Bathing,,Emergency Shelters and Bathing,Crisis Resource Center of Crawford County,620-231-8692         ,800-794-9148,,409 N. Walnut,Pittsburg,KS,66762,,Emergency food and shelter
Emergency Shelters and Bathing,,Emergency Shelters and Bathing,Tulsa Day Center,918-583-5588,,918-583-6745,415 West Archer Street,Tulsa,OK,74103,,"We serve those who are experiencing or at risk for homelessness. Through our work, we treat both the symptoms and the causes of homelessness Ñ pursuing a future where every Tulsan has a home."
Emergency Shelters and Bathing,,Emergency Shelters and Bathing,Tulsa Center of Hope,918-582-7201,,,102 N. Denver,Tulsa,OK,74103,,"Emergency Financial Assistance
Food & Nutrition Programs
Emergency Shelter
Seasonal Services
Transitional Housing
Food Pantry
Community Recreation & Education Programs"
Emergency Shelters and Bathing,,Emergency Shelters and Bathing,John 3:16 Mission,918-587-1187,,918-551-7024,506 N. Cheyenne Ave.,Tulsa,OK,74103,,Homeless Shelter for Men
Employment Agencies,,Employment Agencies,Adecco Staffing,417-624-1911,,,2639 E 32nd St Ste                                                                 ,Joplin,MO,64804,,"Testing, assessment of skills & aptitude.  Referrals to temporary work assignments.  Could lead to permanent employment.                 Adecco helps making the right ÒmatchesÓ - matching your job preferences and skill level with our clientsÕ needs."
Employment Agencies,,Employment Agencies,Alternative Opportunities Employment Services,417-659-9911,,,2000 S. Maiden Lane                                                            ,Joplin,MO,64804,,Job searches for persons w/disabilities
Employment Agencies,,Employment Agencies,Carthage Family Literacy Council,417-358-5926,,,,,,, https://www.facebook.com/CarthageFamilyLiteracyCouncil/,Program that promotes early reading to babies and young children.
Employment Agencies,,Employment Agencies,Family Support Network (FSN) ,417-781-0352,,,302 S. Joplin                                                                        ,Joplin,MO,64801,,"Homeless Job Employment - Assessment, life skills training, work experience, OJT.                                  FSN is for participant seeking employment or special training to improve the level of normal interdependence and be motivated."
Employment Agencies,,Employment Agencies,Economic Security Corp. - Neosho,417-451-2206,,,116 N. Jefferson                                                               ,Neosho,MO,64850,,Community Action Agency
Employment Agencies,,Employment Agencies,Educational Opportunity Center,866-822-1362,,,601 Laclede Rm 250                                                         ,Neosho,MO,64850,,Provides educational information and services to eligible residents of SW MO.  Also provides guidance to HS drop-outs needing assistance to re-enter a secondary education program or pursue alternative educational opportunities.
Employment Agencies,,Employment Agencies,Express Employment Professionals,417-623-6500,,,1501 E 20th St                                                                       ,Joplin,MO,64804,,Helping people find jobs and help local businesses find the right people for their organization.
Employment Agencies,,Employment Agencies,Joplin MO Career Center ,417-629-3000,,, 730 S Wall Ave                                                                      ,Joplin,MO,64801,,"Job-matching services, hiring and recruiting events, customized training assistance, etc."
Employment Agencies,,Employment Agencies,"Joplin Sheltered Workshop, Inc",417-781-2862,,,501 S. School Ave.                                                               ,Joplin,MO,64801,,Employment and job opportunities for developmentally disabled.  Other jobs are available as well.  Cert. by MO Voc. Rehab.
Employment Agencies,,Employment Agencies,Job Corps,417-629-3000,,,730 Wall                                                                                  ,Joplin,MO,64801,,Free residential education & training for ages 16 - 24 who meet OMB poverty guidelines.  
Employment Agencies,,Employment Agencies,"Lake County WIA, Title I / Welfare",417-629-3000,,,730 Wall Street                                                                           ,Joplin,MO,64801,,"JTPA, OJT, education, career planning, EWP, Career Center, Youth Program 14 - 21 yrs, COT, and Research library for anyone."
Employment Agencies,,Employment Agencies,"Lamar Enterprises, Inc",417-682-3506,,,1401 Maple St.                                                                         ,Lamar,MO,64759,,Employment opportunities for Developmental Disabled.  Mental & Physically challenged individuals.
Employment Agencies,,Employment Agencies,Manpower,417-781-8572,,,2660 E 32nd St Suite 103                                                  ,Joplin,MO,64804,,"Testing, assessment of skills & aptitude.  Referrals to temporary work assignments.  Could lead to permanent employment."
Employment Agencies,,Employment Agencies,METP-MO Employment and Training Program,573-882-7477,,,,,,,https://extension2.missouri.edu/, Helps families on food stamps with education and other assistance
Employment Agencies,,Employment Agencies,METP-MO Employment and Training Program                                               University of MO Extension,573-882-7477                            417-358-2158,,,301 S Main St                                                                      ,Carthage,MO,64836,,"METP, MO Employment and Training Program.  Helps families on food stamps with education and other assistance"
Employment Agencies,,Employment Agencies,Missouri Work Assistance,417-623-1208,,,"705 Illinois Ave, Ste. 5",Joplin,MO,64804,,"Families on TANF receive support services for job preparation, find child care, and transportation."
Employment Agencies,,Employment Agencies,MO Career Center / Work Assistance / Job Center,417-623-3392 ,417-629-3000,,730 S. Wall Ave.                                                                     ,Joplin,MO,64801,,"Has Veterans Benefits!!   Training Center:  One stop for Job search(jobs.mo.gov), Hiring events, resume, skill enhancement, clothes closet for job seekers, NCRC and more.   Works with clients on TANF & SNAP"
Employment Agencies,,Employment Agencies,Penmac,417-781-1009    ,417-358-7763,,3130 Wisconsin Ave #2,Joplin,MO,64804,,"To help businesses recruit staff and manage HR services, as well as to help individuals find employment."
Employment Agencies,,Employment Agencies,Peoplelink Staffing Solutions,417-623-2900,,,"1329 E. 32nd, St Ste 9                                                        ",Joplin,MO,64804,,Bringing together great employees and employers throughout the country.
Employment Agencies,,Employment Agencies,Preferred Employment Services ,800-878-1307,,,2000 S Maiden Ln                                                                 ,Joplin,MO,64804,,"We are an equal opportunity employer/affirmative action employer and all qualified applicants will receive consideration for employment without regard to race, color, age, religion, sex, national origin, sexual orientation, gender identity, marital status, disability, protected veteran status, or any other characteristic protected by law."
Employment Agencies,,Employment Agencies,Vocational Rehabilitation Office,417-629-3067,,,801 E. 15th St. Ste. B                                                          ,Joplin,MO,64801,,"Assessments & Job placements for persons w/disabilities                             Services help eligible people with disabilities obtain, maintain or advance in employment.                                       "
Employment Agencies,,Employment Agencies,"Southeast KANSASWORKS, Inc.
",620-342-3355,,,"215 W. 6th Ave, Suite 104",Emporia,KS,66801,,"Mon - Fri:   8:00 am to 5:00 pm                                              
Southeast KANSASWORKS can help you identify your career interests and educate you about the in-demand careers in the local area.
"
Employment Agencies,,Employment Agencies,Express Employment Professionals,620-331-6200,,,2009 N Penn Ave                                                                   ,Independence,KS,67301,,"Express Employment Professionals is one of the top staffing companies in the U.S. and Canada. Every day, we help people find jobs and provide workforce solutions to businesses. Express provides a full range of employment solutions that include full-time, temporary, and part-time employment in a wide range of positions, including Professional, Light Industrial, and Office Services.  "
Employment Agencies,,Employment Agencies,Supported Employment Services,620-431-1805,,,222 W Main St                                                                           Chanute,,KS,66720,,Employment Agency
Employment Agencies,,Employment Agencies,Oklahoma Staffing Specialists,918-574-2292,,,"5505 S Mingo Rd, Ste B                                                                                  ",Tulsa,OK,74146,,Employment agency.
Employment Agencies,,Employment Agencies,Oklahoma Works American Job Center ,918-542-5561,,,121 N Main St                                                                         ,Miami,OK,74354,https://www.ok.gov/oesc/,
Employment Agencies,,Employment Agencies,Experience Works ,877-872-4740,,,,,,, https://www.experienceworks.org/,Senior Community Services
Equestrian Therapy,,Equestrian Therapy,Horses of Hope - Missouri,417-345-5210,,,55 Kelly Rd   ,Buffalo,MO,65622,,"Professional therapeutic, educational and recreational equestrian services to all populations."
Equestrian Therapy,,Equestrian Therapy,Horses of Hope - Kansas,620-674-3458,,,6968 SE 20th St,Baxter Springs,KS,66713,,"Professional therapeutic, educational and recreational equestrian services to all populations."
Equestrian Therapy,,Equestrian Therapy,"Flames to Hope, Inc.
Equine Assisted Services",405-924-4380,,,9850 E Maguire Road,Noble,OK,73068,,We provide both mobile and onsite Equine Assisted Services using miniature equine.
Equestrian Therapy,,Equestrian Therapy,Hoofbeats For Hope,405-650-6175,405-615-7191,,8900 Slaughterville Road,Lexington,OK,73051,,"This experience has multiple opportunities for students to increase physical, social and communication skills. Students develop muscle strength, balance and coordination while riding.  The thrill of riding a horse is an accomplishment that is immeasurable to students who have difficulty with mobility, self-control and/or communication."
Family Caregiver Services,,Family Caregiver Services,Area Agency on Aging,417-781-7562,,,531 E. 15th St,Joplin,MO,64801,,"The Area Agency on Aging Region X serves the senior population of Barton, Jasper, Newton, and McDonald counties.  They provide Meals on Wheels plus help with Medicare and Medicaid information and other age related information."
Family Caregiver Services,,Family Caregiver Services,The Independent Living Center / Consumer Directed Services ,417-659-8086,,,2639 E. 34th St,Joplin,MO,64804,,"The Independent Living Center (TILC) is a private, non-residential, not-for-profit corporation devoted to meeting the needs of individuals with disabilities and to serving them, their families and communities."
Family Caregiver Services,,Family Caregiver Services,Carthage Health & Rehab,"417-358-1937
",,,"1901 Buena Vista Ave
",Carthage,MO,64836,http://carthagehealthandrehab.com/,They hold their meetings on Third Thursday from 4 - 5 for Care Givers dealing with people who have Alzheimer's.
Family Caregiver Services,,Family Caregiver Services,Hospice Compassion,"417-623-8272
",,,,,,,,"They hold their Bereavement support group meetings the 2nd Wed of every month from 11 - 12:30.  (Located by Hilton Hotel).  
They also have a group the 4th Wed at Spring River in the ""Lodge"" from 6:00 - 7:00. 
 They offer a group in Lamar the 2nd Tue of the month in the evening.  Mike also doe community outreach home visits."
Family Caregiver Services,,Family Caregiver Services,Area Agency on Aging,417-781-7562,,,"531 E 15th St
",Joplin,MO,64804,http://www.aaaregionx.org/,"The Alzheimer's Association host a group the third Thursday of each month at 6:00 pm.  
They welcome those caregivers of anyone with dementia / memory issues as well."
Family Caregiver Services,,Family Caregiver Services,Webb City Public Center Library,"417-673-1933
",,,"101 S. Liberty St.
",Webb City,MO,64870,,"Designed to provide emotional, educational and social support for caregivers through regularly scheduled meetings.  They help participants develop methods and skills to solve problems.  The groups encourage caregivers to maintain their own personal, physical and emotional health, as well as optimally care for the person with dementia."
Family Caregiver Services,,Family Caregiver Services,SKIL - Home and Community - Based Services,620-431-0757,,,2 W. Main Street             ,Chanute,KS,66720,,"SKIL was created by; is driven by; and is focused on persons with disabilities, their families, and communities. We provide Advocacy, Education, and Support with Customer Controlled services to break down and remove existing barriers and bridge social gaps to ensure and preserve Equality and Independence for all."
Family Caregiver Services,,Family Caregiver Services,SKIL - Home and Community -Based Services,620-429-3600,,,125 W. Maple    ,Columbus,KS,66725,https://www.skilonline.com/,"SKIL was created by; is driven by; and is focused on persons with disabilities, their families, and communities. We provide Advocacy, Education, and Support with Customer Controlled services to break down and remove existing barriers and bridge social gaps to ensure and preserve Equality and Independence for all."
Family Caregiver Services,,Family Caregiver Services,SKIL - Home and Community - Based Services,620-421-5502,,,1801 Main                         ,Parsons,KS,67357,https://www.skilonline.com/,"SKIL was created by; is driven by; and is focused on persons with disabilities, their families, and communities. We provide Advocacy, Education, and Support with Customer Controlled services to break down and remove existing barriers and bridge social gaps to ensure and preserve Equality and Independence for all."
Family Caregiver Services,,Family Caregiver Services,SKIL - Home and Community - Based Services,620-231-6780,,,1403 N. Broadway       ,Pittsburg,KS,66762,https://www.skilonline.com/,"www.usd250.org. SKIL was created by; is driven by; and is focused on persons with disabilities, their families, and communities. We provide Advocacy, Education, and Support with Customer Controlled services to break down and remove existing barriers and bridge social gaps to ensure and preserve Equality and Independence for all."
Family Caregiver Services,,Family Caregiver Services,Breakfast Clubs for Alzheimer's Care Partners,620-431-4240,,,"202 S. Lincoln Avenue
",Chanute,KS,66720,,"First Wednesday of the Month
9:00 am to 10:30 am"
Family Caregiver Services,,Family Caregiver Services,Breakfast Clubs for Alzheimer's Care Partners,620-423-0423,,,"98 Main Street
",Parsons,KS,67357,,"First Thursday of the Month
9:00 am to 10:30 am"
Family Caregiver Services,,Family Caregiver Services,Breakfast Clubs for Alzheimer's Care Partners,620-223-4171,,,"10 N. Main Street
",Fort Scott,KS,66701,,"Third Wednesday of the Month
9:00 am to 10:30 am"
Family Caregiver Services,,Family Caregiver Services,Breakfast Clubs for Alzheimer's Care Partners,620-231-2170,,,"415 N. Pine
",Pittsburg,KS,66762,,"Third Thursday of the Month
9:00 am to 10:30 am"
Family Caregiver Services,,Family Caregiver Services,Four County Mental Health Center,620-251-8180,620-331-1748,,,,,,,"Breakfast on the third Thursday of each month at area restaurants with no charge to caregivers.
Lunch Bunch on the second Thursday of each month at Big Cheese Pizza in Independence from 11:00 am to 12:30 am, no charge to caregivers."
Family Caregiver Services,,Family Caregiver Services,Oklahoma Caregiver Coalition , 918-579-9495 ,,,2 West 2nd Street,Tulsa,OK,74103,http://www.okcares.org/,"The mission of the Oklahoma Caregiver Coalition (OCC) is to improve the supports and experiences over the lifespan of caregivers through education, advocacy, and access to resources. "
Family Caregiver Services,,Family Caregiver Services,Big Five Community Services,580-924-5331,,,1502 N. First ,Durant,OK,74701,,"Serves Bryan, Carter, Coal, Love and Pontotoc Counties with Family Caregivers Program"
Family Caregiver Services,,Family Caregiver Services,Alzheimer's Association,800-272-3900,,,,,,,https://www.alz.org/oklahoma,"If you or someone you know has been diagnosed with Alzheimer's or another dementia, you are not alone. The Alzheimer's Association is the trusted resource for reliable information, education, referral and support to millions of people affected by the disease. "
Family Caregiver Services,,Family Caregiver Services,"Eastern Oklahoma Development District
(EODD)","918-913-9585 
",800-211-2116,,,,,,http://www.eoddok.org/area-agency-on-aging/caregiver,"Although caregiving can be rewarding, it can also be stressful. At times you may not know where to go for answers, emotional support, or a much deserved break"
Family Caregiver Services,,Family Caregiver Services,Family Caregiver Alliance-National Center on Caregiving, 800-445-8106,,,,,,,https://www.caregiver.org/,"For 40 years Family Caregiver Alliance (FCA) has supported and sustained the important work of families and friends nationwide who care for adult loved ones with chronic, disabling health conditions."
Family Caregiver Services,,Family Caregiver Services,Alzheimer's Association,1-800-272-3900,,,,,,,https://www.alz.org/alzheimers-dementia/what-is-alzheimers,"If you or someone you know has been diagnosed with Alzheimer's or another dementia, you are not alone. The Alzheimer's Association is the trusted resource for reliable information, education, referral and support to millions of people affected by the disease. "
Financial Assistance,,Financial Assistance,Catholic Charities     ,(417) 624-3790,,,403 E 4th St,Joplin,MO,64801,https://www.ccsomo.org/,
Financial Assistance,,Financial Assistance,Consumer Credit Counseling Services,417-782-6830,800-882-0808,,"1027 S. Main, Suite 304",Joplin,MO,64804,,
Financial Assistance,,Financial Assistance,Department of Social Services, 1-855-373-4636,,,,,,, https://dss.mo.gov/,
Financial Assistance,,Financial Assistance,ESC VITA - Financial Consultation,417-781-0352,,,302 S. Joplin    ,Joplin,MO,64801,,
Financial Assistance,,Financial Assistance,H2O Help - MO American Water,314-863-0015,,,2709 Woodson Rd     ,St. Louis,MO,63114,,
Financial Assistance,,Financial Assistance,Joplin Area Ministerial Alliance ,417-439-1206,,,,Joplin,MO,,www.joplinalliance.org,
Financial Assistance,,Financial Assistance,Ozark Area Community Action   ,417-862 - 4314,,,215 S. Barnes Ave   ,Springfield,MO,65802,,
Financial Assistance,,Financial Assistance,Society of St. Vincent de Paul ,417-625-1085,,,"512 E 32nd St, #108    ",Joplin,MO,64804,http://www.svdpjomo.org/,
Financial Assistance,,Financial Assistance,USDA Rural Development Services,417-358-8198,,,416 E. Airport Drive  ,Carthage,MO,64836,,
Financial Assistance,,Financial Assistance,Community Foundation of Southeast Kansas, 620-231-8897,,,"100 S Broadway St, #100      ",Pittsburg,KS,66762,southeastkansas.org,
Financial Assistance,,Financial Assistance,Oklahoma Assistance and Financial Aid Programs,,,,,,,,https://www.needhelppayingbills.com/html/oklahoma_assistance_programs.html,
Financial Assistance,,Financial Assistance,Oklahoma Rental Assistance,641-715-3900,,,,,,,https://www.rentassistance.us/st/oklahoma,
Food and Clothing - Assistance and / or Pantries,,Food and Clothing - Assistance and / or Pantries,Area Agency on Aging: Meals on Wheels,417-781-7562,,,531 E. 15th Street,Joplin,MO,64804,,"Meals on Wheels, etc. (Homebound meals for qualifying individuals only, must be over 60)                                      Jobs for people 60 and over."
Food and Clothing - Assistance and / or Pantries,,Food and Clothing - Assistance and / or Pantries,The Center of Carl Junction,417-649-6437,,,303 N. Main Street,Carl Junction,MO,64834,,"Lunch served Monday-Friday 11:30 am to 12:30 pm. Eligible clients, 60 years and older, receive a meal for the recommended donation of $3.50 per meal. For guests under 60, the meal charge is $7.00."
Food and Clothing - Assistance and / or Pantries,,Food and Clothing - Assistance and / or Pantries,Joplin Senior Center,417-781-9353,,,2616 S. Picher Ave,Joplin,MO,,,(Joplin) Meals start at 11:30 am.
Food and Clothing - Assistance and / or Pantries,,Food and Clothing - Assistance and / or Pantries,Webb City Senior Center,417-673-1876,,,210 N. Pennsylvania,Webb City,MO,64870,,"Lunch served Monday-Friday 11:30 am to 12:30 pm. Eligible clients, 60 years and older, receive a meal for the recommended donation of $3.50 per meal. For guests under 60, the meal charge is $7.00.
"
Food and Clothing - Assistance and / or Pantries,,Food and Clothing - Assistance and / or Pantries,Barton County Senior Center,417-682-3881,,,306 11th Street W,Lamar,MO,64759,,"(Barton County)     also provides Glaucoma Testing, Foot Clinic, Exercise and Blood Pressure Clinic"
Food and Clothing - Assistance and / or Pantries,,Food and Clothing - Assistance and / or Pantries,C.A.N.D.O. Senior Center (Carthage),417-358-4741,,,404 3rd Street,Carthage,MO,64836,,"Lunch served Monday-Friday 11:30 am to 12:30 pm. Eligible clients, 60 years and older, receive a meal for the recommended donation of $3.50 per meal. For guests under 60, the meal charge is $7.00.
"
Food and Clothing - Assistance and / or Pantries,,Food and Clothing - Assistance and / or Pantries,John Talyor Senior Center,417-466-2072,,,425 N. Main St,Mount Vernon,MO,65712,,"Lunch served Monday-Friday  11:30 am to 12:30 pm. Eligible clients, 60 years and older, receive a meal for the recommended donation of $3.50 per meal. For guests under 60, the meal charge is $7.00.
"
Food and Clothing - Assistance and / or Pantries,,Food and Clothing - Assistance and / or Pantries,Heritage Harmony,417-678-5383,,,700 S. Hudson Avenue,Aurora,MO,65605,,"Lunch served Monday-Friday  11:30 am to 12:30 pm. Eligible clients, 60 years and older, receive a meal for the recommended donation of $3.50 per meal. For guests under 60, the meal charge is $7.00.
"
Food and Clothing - Assistance and / or Pantries,,Food and Clothing - Assistance and / or Pantries,Neosho Center for Senior,417-451-0981,,,1017 Carl Sweeney Parkway,Neosho,MO,64850,,"Lunch served Monday-Friday                               11:30 am to 12:30 pm. Eligible clients, 60 years and older, receive a meal for the recommended donation of $3.50 per meal. For guests under 60, the meal charge is $7.00.
"
Food and Clothing - Assistance and / or Pantries,,Food and Clothing - Assistance and / or Pantries,McDonald County Senior Center,417-475-3511 ,417-475-3559,,624 Johnson Drive,Noel,MO,64854,,"Lunch served Monday-Friday                       11:30 am to 12:30 pm. Eligible clients, 60 years and older, receive a meal for the recommended donation of $3.50 per meal. For guests under 60, the meal charge is $7.00.
"
Food and Clothing - Assistance and / or Pantries,,Food and Clothing - Assistance and / or Pantries,Monett Senior Center / Loaves &                                        Fishes,417-235-3285 ,417-235-5723,,1600 N. Central Avenue,Monett,MO,65708,,"Lunch served Monday-Friday                         11:30 am to 12:30 pm. Eligible clients, 60 years and older, receive a meal for the recommended donation of $3.50 per meal. For guests under 60, the meal charge is $7.00.
"
Food and Clothing - Assistance and / or Pantries,,Food and Clothing - Assistance and / or Pantries,Cassville Senior Center,417-847-4510 ,417-847-0131,,1111 Fair Street,Cassville,MO,65625,,"Lunch served Monday-Friday                      11:30 am to 12:30 pm. Eligible clients, 60 years and older, receive a meal for the recommended donation of $3.50 per meal. For guests under 60, the meal charge is $7.00.
"
Food and Clothing - Assistance and / or Pantries,,Food and Clothing - Assistance and / or Pantries,Central Crossing Senior Center,417-858-6952,,,20801 YY 15 Rd,Shell Knob,MO,65747,,"Lunch served Monday-Friday               11:30 am to 12:30 pm. Eligible clients, 60 years and older, receive a meal for the recommended donation of $3.50 per meal. For guests under 60, the meal charge is $7.00.
"
Food and Clothing - Assistance and / or Pantries,,Food and Clothing - Assistance and / or Pantries,Southwest Missouri Area Agency on Aging,417-862-0762,,,1735 S. Fort Avenue,Springfield,MO,65807,,"Lunch served Monday-Friday                      11:30 am to 12:30 pm. Eligible clients, 60 years and older, receive a meal for the recommended donation of $3.50 per meal. For guests under 60, the meal charge is $7.00.
"
Food and Clothing - Assistance and / or Pantries,,Food and Clothing - Assistance and / or Pantries,Vernon County Senior Center,417-667-5847,,,301 N. Main St,Nevada,MO,64772,,"Lunch served Monday-Friday                     11:30 am to 12:30 pm. Eligible clients, 60 years and older, receive a meal for the recommended donation of $3.50 per meal. For guests under 60, the meal charge is $7.00.
"
Food and Clothing - Assistance and / or Pantries,,Food and Clothing - Assistance and / or Pantries,Carthage Crisis Center,417-358-3533 ,,,100 S. Main St,Carthage,MO,64836,,"Clothing - Treasures on Main.   Open to anyone who has emergency conditions who is hungry, needs food or lodging.  There are no income guidelines.  Based on individual circumstances.  This center does have faith based requirements."
Food and Clothing - Assistance and / or Pantries,,Food and Clothing - Assistance and / or Pantries,Carthage Crosslines Ministries,417-358-1577,,,600 E. 6th Street,Carthage,MO,64836,,"Emergency food , utility assistance, rent, prescriptions and other assistance.   Need proof of income, SSC, Driver's License and receipts for bills that have been paid recently."
Food and Clothing - Assistance and / or Pantries,,Food and Clothing - Assistance and / or Pantries,Catholic Charities,417-624-3790,,,403 E. 4th St,Joplin,MO,64801,,Provides assistance with SNAP / Food Stamp applications     Mon - Fri  8am - 5 pm
Food and Clothing - Assistance and / or Pantries,,Food and Clothing - Assistance and / or Pantries,Christ's Church of Oronogo,417-673-3945,,,22145 Kafir Rd,Oronogo,MO,64855,,Food Pantry & Benevolence Funds / Church Services
Food and Clothing - Assistance and / or Pantries,,Food and Clothing - Assistance and / or Pantries,Church of Christ,417-781-2326,,,1819 E. 26th St,Joplin,MO,64804,,Food Pantry
Food and Clothing - Assistance and / or Pantries,,Food and Clothing - Assistance and / or Pantries,College Heights Christian Church,417-624-6915,,,4311 E. Newman Rd,Joplin,MO,64801,,Benevolence Fund / Church Services
Food and Clothing - Assistance and / or Pantries,,Food and Clothing - Assistance and / or Pantries,Cornerstone Church ,417-206-7577,,,401 Forest St,Joplin,MO,64801,,"Meet income guideline (very broad), can use pantry only 1 time per month, unless you have a crisis situation.  They try to furnish each person in home with food for 3 meals per day for 7 days."
Food and Clothing - Assistance and / or Pantries,,Food and Clothing - Assistance and / or Pantries,Crosslines Ministries of SWMO / Joplin,417-782-8384,,,320 S. School,Joplin,MO,64801,,"Emergency food pantry, rent and utility assistance, Hygiene, Blankets for homeless, Diapers, Baby items, Mother & Daughter programs, Social Services."
Food and Clothing - Assistance and / or Pantries,,Food and Clothing - Assistance and / or Pantries,Crosslines Ministries of Carthage,417-358-1577,,,600 E. 6th Street,Carthage,MO,64836,,"Emergency food pantry, rent and utility assistance, Hygiene, Blankets for homeless, Diapers, Baby items, Mother & Daughter programs, Social Services."
Food and Clothing - Assistance and / or Pantries,,Food and Clothing - Assistance and / or Pantries,Crosslines Of McDonald County,417-845-1800,,,925 N. Business Hwy 7,Anderson,MO,64831,,"Emergency food, and sometimes will provide free clothing to people whose homes have burnt. Mailing address: PO Box 473"
Food and Clothing - Assistance and / or Pantries,,Food and Clothing - Assistance and / or Pantries,Crosslines Of Neosho,417-451-0157,,,308 E. Spring Street,Neosho,MO,64850,,"Clothing once every year, some kitchen and bedding supplies one time only if disaster (must have proof), layettes 1 per child 0-3 months), and monthly hygiene pack with includes diapers if needed once a month."
Food and Clothing - Assistance and / or Pantries,,Food and Clothing - Assistance and / or Pantries,Department of Family Services: All counties,855-373-4636,,,,,,,,
Food and Clothing - Assistance and / or Pantries,,Food and Clothing - Assistance and / or Pantries,Department of Family Services: Barton County,417-682-3531,,,501 W. 13th St,Lamar,MO,64759,,"MoHealth.net, SNAP - Supplemental Nutritional Assistance Program"
Food and Clothing - Assistance and / or Pantries,,Food and Clothing - Assistance and / or Pantries,Department of Family Services: Jasper County,417-629-3050,,,601 Commercial,Joplin,MO,64801,,"MoHealth.net, SNAP - Supplemental Nutritional Assistance Program"
Food and Clothing - Assistance and / or Pantries,,Food and Clothing - Assistance and / or Pantries,Department of Family Services: McDonald County,417-845-6951,,,929 N. 71 Business Hwy,Anderson,MO,64831,,"MoHealth.net, SNAP - Supplemental Nutritional Assistance Program"
Food and Clothing - Assistance and / or Pantries,,Food and Clothing - Assistance and / or Pantries,Department of Family Services: Newton County,417-455-5100,,,201 N. Washington St,Neosho,MO,64850,,"MoHealth.net, SNAP - Supplemental Nutritional Assistance Program"
Food and Clothing - Assistance and / or Pantries,,Food and Clothing - Assistance and / or Pantries,Eagle Lodge,417-623-0533,,,1321 S. Main St,Joplin,MO,64801,,Winter Coats for low income children
Food and Clothing - Assistance and / or Pantries,,Food and Clothing - Assistance and / or Pantries,Family Services of Joplin (Jasper County),417-629-3050,,,601 Commercial St,Joplin,MO,64801,,"Food Stamps, TANF    (emergency financial support)  Medicaid"
Food and Clothing - Assistance and / or Pantries,,Food and Clothing - Assistance and / or Pantries,"Feeding, Inc.",417-359-8800,,,210 River Street,Carthage MO 64870,,,,Prepared Meals /Open Wed 3:00
Food and Clothing - Assistance and / or Pantries,,Food and Clothing - Assistance and / or Pantries,Fellowship Baptist Church,417-781-5174,,,2827 E. 32nd Street,Joplin,MO,64804,,General
Food and Clothing - Assistance and / or Pantries,,Food and Clothing - Assistance and / or Pantries,First Baptist Church,417-845-3565,,,1 Friendship Lane,Anderson,MO,64831,,Non-food items and food pantry for customers moving through McDonald county
Food and Clothing - Assistance and / or Pantries,,Food and Clothing - Assistance and / or Pantries,First Christian Church,417-649-7200,,,103 Hodge Dr,Carl Junction,MO,64834,,Food Pantry
Food and Clothing - Assistance and / or Pantries,,Food and Clothing - Assistance and / or Pantries,Frisco Church - Samaritan Basket,417-673-3672 ext. 103,,,908 W Daugherty St,Webb City,MO,64870,,(Reserve household basket Friday before; baskets distributed every other Monday)
Food and Clothing - Assistance and / or Pantries,,Food and Clothing - Assistance and / or Pantries,Heartland Share Food- Joplin,417-623-6588,,,812 S Pearl Ave,Joplin,MO,64801,https://saintpetertheapostlejoplin.com/,"Located at St. Peters Catholic Church. Receives $28.00 - $30.00 of food for $17.00 (cash or food stamps) = 2 hours of community service. Anyone can participate, but must do 2 hours community service unpaid. 417-529-1413 (Kim Vaughn)  417-623-8643    (St. Peters)   417-782-1999 (Mary Kaiser)"
Food and Clothing - Assistance and / or Pantries,,Food and Clothing - Assistance and / or Pantries,Heartland Share Food - Carl Junction,(417) 649-6303 ,(417) 626-2764,,103 Hodge Dr,Carl Junction,MO,64834,https://cccj.church/,"Located at Carl Junction Christian Church. Receives $28.00 - $30.00 of food for $17.00 (cash or food stamps) = 2 hours of community service. Anyone can participate, but must do 2 hours community service unpaid. Barb Eppard (Evenings) (417) 649-6303                    Marie Hanson                           (417) 626-2764"
Food and Clothing - Assistance and / or Pantries,,Food and Clothing - Assistance and / or Pantries,Heartland Share Food - Carthage ,(417) 358-5926,(417) 358-1631 ,,706 Orchard Street,Carthage,MO,64836,,"Receives $28.00 - $30.00 of food for $17.00 (cash or food stamps) = 2 hours of community service. Anyone can participate, but must do 2 hours community service unpaid. Mailing address: PO Box 793"
Food and Clothing - Assistance and / or Pantries,,Food and Clothing - Assistance and / or Pantries,Heartland Share Food - Neosho,(417)451-5749 ext. 106, (417) 451-1660,,P.O. 866,Neosho,MO,64850,,"Receives $28.00 - $30.00 of food for $17.00 (cash or food stamps) = 2 hours of community service. Anyone can participate, but must do 2 hours community service unpaid."
Food and Clothing - Assistance and / or Pantries,,Food and Clothing - Assistance and / or Pantries,Help Center - Neosho,417-451-0884,,,1321 N. Business Hwy 49,Neosho,MO,64850,,Food pantry for those that qualify who can receive food 1 time a month with hardship boxes 4 time a year.  (Gas vouchers for emergencies in the amount of $10.00 - 1 time a year.  Clothes for families burned out of their homes.
Food and Clothing - Assistance and / or Pantries,,Food and Clothing - Assistance and / or Pantries,Helping Hand Ministries,417-649-2002,417-649-6866,,1304 E Pennell St,Carl Junction,MO,64834,,Carl Junction Only - Must call before going.                                                        Hours:   Wed & Sat 10 - 2
Food and Clothing - Assistance and / or Pantries,,Food and Clothing - Assistance and / or Pantries,Hope Chest Thrift Store,417-626-2929,,,215 E 7th St,Joplin,MO,64801,,Can provide clothing for low income or disaster affected families. Must provide family w/a letter referring them to receive items for free.
Food and Clothing - Assistance and / or Pantries,,Food and Clothing - Assistance and / or Pantries,Hope Kitchen Community Ministry,417-658-9208,,,219 E. Main St,Neosho,MO,64850,,Provides Free meals 5-8pm Tuesdays  & Thursdays  & Saturday
Food and Clothing - Assistance and / or Pantries,,Food and Clothing - Assistance and / or Pantries,Joplin Area Ministerial Alliance,417-439-1206,,,P. O.  Box 1136,Joplin,Missouri,64802,,"The Joplin Area Ministerial Alliance is a fellowship of Christian ministry leaders, working toward a unified effort, to represent God and facilitate outreach to the greater Joplin community. That outreach is defined by the Upward (worship), Inward (fellowship), and Outward (evangelism) aspects of the Great Commission."
Food and Clothing - Assistance and / or Pantries,,Food and Clothing - Assistance and / or Pantries,Lamar Good Samaritan        (Acting as Salvation  Army - Lamar / Barton),417-682-5396,,,1301 Parry St,Lamar,MO,64759,,Good Samaritan is acting agent for Salvation Army.  Using discretion as to amount per household as circumstance applies.   Emergency food pantry.
Food and Clothing - Assistance and / or Pantries,,Food and Clothing - Assistance and / or Pantries,Liberal Ministerial Alliance - Barton,417-843-4755,,,1072 NW 82nd Rd,Liberal,MO,64762,,Financial help for qualifying clients on rent or utility assistance.  Food pantry.  Residents of Liberal in need.
Food and Clothing - Assistance and / or Pantries,,Food and Clothing - Assistance and / or Pantries,Life Church of Carthage,417-674-1315,,,2965 S Chapel Rd,Carthage,MO,64836,,Provides hot meals                                         Louie Griffey - Free Clothing
Food and Clothing - Assistance and / or Pantries,,Food and Clothing - Assistance and / or Pantries,Mission Joplin (Forest Park Baptist Church Outreach),417-623-0980 ,,,725 Highview,Joplin,MO,64801,,Open T/TH 10-2 pm -                                    (Food & Clothing)   Or                                 Open T/TH 1-3 (Food)                      Open 1st Mon 9 - 1 (Clothing) 
Food and Clothing - Assistance and / or Pantries,,Food and Clothing - Assistance and / or Pantries,McDonald Cty Volunteer Clothes Closet (behind Casey's),417-845-3328,,,Mill St,Anderson,MO,64831,,"Affordable clothing, household items & furniture if available"
Food and Clothing - Assistance and / or Pantries,,Food and Clothing - Assistance and / or Pantries,Monark Baptist Church,417-451-4661,,,18472 Linden Drive,Neosho,MO,64850,,"Diapers,  household items, Discount Food store, etc."
Food and Clothing - Assistance and / or Pantries,,Food and Clothing - Assistance and / or Pantries,National Hunger Hotline - 1-866-3-HUNGRY,1-866-348-6479,,,,,,,https://www.hungerfreeamerica.org/about/our-work/usda-national-hunger-hotline,Call for resource referral.                    Hours:  Mon - Fri      7am - 10 pm EST
Food and Clothing - Assistance and / or Pantries,,Food and Clothing - Assistance and / or Pantries,New Life Evangelistic Center,417-781-8994,,,831 Moffet,Joplin,MO,64801,,"Limited can food items, clothing."
Food and Clothing - Assistance and / or Pantries,,Food and Clothing - Assistance and / or Pantries,Noel Ministerial Alliance,417-475-3852,,,Noel and Sulphur Street,Noel,MO,64854,,"Emergency food, gas and also have help with emergency housing utilities."
Food and Clothing - Assistance and / or Pantries,,Food and Clothing - Assistance and / or Pantries,Neosho Help Center,417-451-0884,,,1321 N Business 49,Neosho,MO,64850,http://www.gospellighthousechurch.org/site/cs/editorial.asp?page=2  ,"Along with the food dispersion, The Help Center also has a store in the front section of the building. Various people from all over donate items they no longer need and those items are sold to also help sponsor the project."
Food and Clothing - Assistance and / or Pantries,,Food and Clothing - Assistance and / or Pantries,River Street Food Pantry,417-359-8800,,,210 N River St,Carthage,MO,64836,,Non-Income based Tues. & Thursday only 9am - 3pm.
Food and Clothing - Assistance and / or Pantries,,Food and Clothing - Assistance and / or Pantries,Sacred Heart Catholic Church,417-673-2044,,,909 N Madison St,Webb City,MO,64870,,Non Income based                                          Webb City only - Tues. & Thurs.                                                Noon to 2pm - no appointment necessary
Food and Clothing - Assistance and / or Pantries,,Food and Clothing - Assistance and / or Pantries,Salvation Army - Carthage,417-358-2262,,,125 E. Fairview St,Carthage,MO,64836,,"(Food only) by appt.                                      Lunch at 11:30, Mon - Fri                 Emergency prescriptions, household items, bus tickets, clothes, lodging, rent, utilities and other assistance as needed."
Food and Clothing - Assistance and / or Pantries,,Food and Clothing - Assistance and / or Pantries,Salvation Army - Joplin AKA  Salvation Army of Jasper / Newton,417-624-4528,,,320 E. 8th St,Joplin,MO,64801,,"Clothing vouchers given - Call for additional info.   Prayer Counseling, Breakfast Mon - Fri:  8 am - 8:45 and Lunch:  Mon - Sat 12 - 1 pm, Planning Social Services, Birth Certificate and ID assistance, Locating other resources and assistance, job applications and medical forms"
Food and Clothing - Assistance and / or Pantries,,Food and Clothing - Assistance and / or Pantries,Seneca Food Pantry,417-776-4650,,,1316 Cherokee Ave,Neosho,MO,64865,,"We not only provide listings of pantries, but we also provide information on: food closets, food banks, soup kitchens, congregate meal locations, food boxes, vouchers, etc."
Food and Clothing - Assistance and / or Pantries,,Food and Clothing - Assistance and / or Pantries,Supplemental Nutritional Assistance Program (SNAP) -  Barry County,1-855-373-4636,,,208 East 8th Street,,,,,"This is the Barry County FSD Office located in Cassville, MO. Most states offer the ability to apply for food assistance program online or in-person at local county offices."
Food and Clothing - Assistance and / or Pantries,,Food and Clothing - Assistance and / or Pantries,Supplemental Nutritional Assistance Program (SNAP) - Barton County,417-682-3531,,,501 W. 13th St,Lamar,MO,64759,,"MoHealth.net, SNAP - Supplemental Nutritional Assistance Program"
Food and Clothing - Assistance and / or Pantries,,Food and Clothing - Assistance and / or Pantries,Supplemental Nutritional Assistance Program (SNAP) - Jasper County,417-629-3050,,,601 Commercial,Joplin,MO,64801,,"MoHealth.net, SNAP - Supplemental Nutritional Assistance Program"
Food and Clothing - Assistance and / or Pantries,,Food and Clothing - Assistance and / or Pantries,Supplemental Nutritional Assistance Program (SNAP) - McDonald County,417-845-6951,,,929 N. 71 Business Hwy,Anderson,MO,64831,,"MoHealth.net, SNAP - Supplemental Nutritional Assistance Program"
Food and Clothing - Assistance and / or Pantries,,Food and Clothing - Assistance and / or Pantries,Supplemental Nutritional Assistance Program (SNAP) -  Newton County,417-455-5100,,,201 N. Washington St,Neosho,MO,64865,,"MoHealth.net, SNAP - Supplemental Nutritional Assistance Program"
Food and Clothing - Assistance and / or Pantries,,Food and Clothing - Assistance and / or Pantries,Soul's Harbor Mission,417-623-7927,417-623-4358,,817 & 915 S. Main St,Joplin,MO,64801,,"Meals every day at 7 a.m. & 5:45 p.m    Emergency housing, food baskets, personal items & furniture when available.      Clothing"
Food and Clothing - Assistance and / or Pantries,,Food and Clothing - Assistance and / or Pantries,Sovereign Grace Baptist Church,417-622-8276,,,1218 E. 32nd St,Joplin,MO,64804,,Clothing & Toiletries
Food and Clothing - Assistance and / or Pantries,,Food and Clothing - Assistance and / or Pantries,St. Peter's Outreach House,417-623-8643 ,,,812 S. Pear,Joplin,MO,64801,,Food Pantry & Clothing
Food and Clothing - Assistance and / or Pantries,,Food and Clothing - Assistance and / or Pantries,St. Peter's Outreach House,417-206-2588,,,807 S. Moffett,Joplin,MO,64801,,"Prepared Meals -                             M,W, F and last 2 Sundays of the month  11:00 to 1:00    "
Food and Clothing - Assistance and / or Pantries,,Food and Clothing - Assistance and / or Pantries,St. Vincent de Paul's,417-625-1085,,,"512 E. 32nd St., Ste. 108,",Joplin,MO,64804,,"Open 9:00 - 11:00 on Thurs,   Open 9:00 - 11:00  the 2nd Sat. of each month."
Food and Clothing - Assistance and / or Pantries,,Food and Clothing - Assistance and / or Pantries,Trinity Learning Center ,417-451-4559,,,19937 Quapaw Ln,Neosho,MO,64850,,"Give out paper goods:  Toilet Paper, Depends, Diapers, Et. When available.  Open 1st & 3rd Thurs. of the month.  4:00 to 5:00 pm."
Food and Clothing - Assistance and / or Pantries,,Food and Clothing - Assistance and / or Pantries,Watered Gardens,417-623-6030,,,531 S. Kentucky Ave,Joplin,MO,64801,,Meals daily.                                                   Clothing and shoes.                                    Call for additional info.  For low income families and the Homeless  
Food and Clothing - Assistance and / or Pantries,,Food and Clothing - Assistance and / or Pantries,We Care of the 4 States,417-625-1600,,,6879 Newman Rd,Joplin,MO,64801,wecareofthe4states.org,Tuesdays  & Thursdays Emergency Food - Call to make an appt. first.
Food and Clothing - Assistance and / or Pantries,,Food and Clothing - Assistance and / or Pantries,WIC,417-623-1928,,,321 E. 4th St,Joplin,MO,64801,,Food & Formula assistance for Families w/Children
Food and Clothing - Assistance and / or Pantries,,Food and Clothing - Assistance and / or Pantries,Wildwood Baptist Church,417-623-6466,,,4827 E. 20th St,Joplin,MO,64801,,Food Pantry
Food and Clothing - Assistance and / or Pantries,,Food and Clothing - Assistance and / or Pantries,Woman to Woman,417-624-2267,,,1730 S. Byers Ave,Joplin,MO,64801,,Can help with professional clothing for women.  Must be referred by employee at Economic Security.
Food and Clothing - Assistance and / or Pantries,,Food and Clothing - Assistance and / or Pantries,Aging & Disability Resource Center of SE Kansas,620-431-2980,,,P.O. Box J,Chanute,KS,66720,,Home delivered meals to SEK Counties
Food and Clothing - Assistance and / or Pantries,,Food and Clothing - Assistance and / or Pantries,Blessing Exchange,620-856-4200,,,704 Main Street,Galena,KS,66739,,Food Pantry & Clothing Bank                        Tue / Thur 10:00 an - 1:00 pm            Steve Fellers  620-202-1908
Food and Clothing - Assistance and / or Pantries,,Food and Clothing - Assistance and / or Pantries,Farmer's Market at City Hall,,,,211 W 7th Street,Galena,KS,66739,,Saturday Mornings - May - Oct
Food and Clothing - Assistance and / or Pantries,,Food and Clothing - Assistance and / or Pantries,Farmer's Market at American Bank Parking Lot,,,,810 E. Maple,Columbus,KS,66725,,Saturday Mornings - May - Oct
Food and Clothing - Assistance and / or Pantries,,Food and Clothing - Assistance and / or Pantries,First Presbyterian Church,620-429-3619,620-429-1556,,133 E Pine St,Columbus,KS,66725,,Free Lunches:  June - August
Food and Clothing - Assistance and / or Pantries,,Food and Clothing - Assistance and / or Pantries,Food Pantry at United Methodist Church,620-396-8343,,,410 S. Jefferson,Weir,KS,66781,,Food
Food and Clothing - Assistance and / or Pantries,,Food and Clothing - Assistance and / or Pantries,Food Panty and Clothing Bank,620-856-5888,,,140 West 10th St,Baxter Springs,KS,66713,,Part of the Ministerial Alliance
Food and Clothing - Assistance and / or Pantries,,Food and Clothing - Assistance and / or Pantries,Methodist Church ,620-429-2791,,,320 W Maple St,Columbus,KS,66725,,Food Pantry & Thrift Shop
Food and Clothing - Assistance and / or Pantries,,Food and Clothing - Assistance and / or Pantries,Mid-America Food and Food Pantry,620-856-3400,,,614 Ottawa,Baxter Springs,KS,66713,,Food Pantry
Food and Clothing - Assistance and / or Pantries,,Food and Clothing - Assistance and / or Pantries,The Emergency Food Assistance / USDA Commodities. Columbus Christian Center (Nancy Hurd)    ,620-429-2424,,,1001 E. Merle Evans Drive,Columbus,KS,66713,,USDA Commodities
Food and Clothing - Assistance and / or Pantries,,Food and Clothing - Assistance and / or Pantries,The Emergency Food Assistance / USDA Commodities. Trinity Worship Center  (Steve Fellers),620-856-4200,620-202-1908,,225 E. 16th Street,Baxter Springs,KS,66713,,Food Assistance
Food and Clothing - Assistance and / or Pantries,,Food and Clothing - Assistance and / or Pantries,Wesley House,620-232-3760,,,411 E. 12th,Pittsburg,KS,66762,www.wesleyhouseumc.org,Emergency and food assistance
Food and Clothing - Assistance and / or Pantries,,Food and Clothing - Assistance and / or Pantries,Christian Help Center,918-786-6798,,,1703 E Highway 10,Grove,OK,74344,,This is a Christian mission. We pray with and for the individuals who come to the Center seeking assistance. We realize that they are in need of the day to day basic food items and we strive to meet some of that need. But all of us also need the comfort and provision of our loving Lord. 
Food and Clothing - Assistance and / or Pantries,,Food and Clothing - Assistance and / or Pantries,Christian Community Care Center,918-253-6168,,,202 N. 5th St,Jay,OK,74346,,"Food pantry located 11.37 miles from Grove.  Open Tue and Thur 10:00am - 3:00pm.  Provides a food pantry.  Serves Delaware County.  Documentation Required:  Driver's license or other ID, current utility bill that shows physical address of residence and copy of CDIB card, if applicable.  "
Food and Clothing - Assistance and / or Pantries,,Food and Clothing - Assistance and / or Pantries,Doc Services,918-542-6671,,,205 B. NE Street,Miami,OK,74354,,"Home delivered meals in Ottawa, Delaware, and Craig Counties.  Some are through donation others are through the Integris Miami Hospital home paid meal program.  They also deliver the Advantage meal program.    "
Food and Clothing - Assistance and / or Pantries,,Food and Clothing - Assistance and / or Pantries,Inter-Tribal Council Inc.,918-542-3442,,,114S Eight Tribes Trail,Miami,OK,74354,https://itcfdp.org,Pantry Hours:  Mon - Fri: 8 AM - 12 PM / 1 PM - 4 PM.  Closed Sat & Sun.  Located 20.06 miles from Grove.
Food and Clothing - Assistance and / or Pantries,,Food and Clothing - Assistance and / or Pantries,"Inter Tribal Council, Inc",918-542-4486,,,no address,Miami,OK,74355,,"CDIB Card, Food distribution program (alternate to Food Stamp program) WIC. Also information on tribal roles for the four - state area."
Food and Clothing - Assistance and / or Pantries,,Food and Clothing - Assistance and / or Pantries,Ottawa County Nutrition Coalition,918-542-9676,,,33 N. Main,Miami,OK,74354,,"Pantry Hours:  Mon - Fri: 1 PM - 4  PM. Provides a food pantry that serves Ottawa County, OK.  Documentation Required:  Social Security Card or Picture ID.  20.53 miles from Grove"
Food and Clothing - Assistance and / or Pantries,,Food and Clothing - Assistance and / or Pantries,Ottawa Tribe Nutrition Center,918-541-1900,,,10 Highway 69A,Miami,OK,74354,,Home delivered meal services to tribal members only.
Food and Clothing - Assistance and / or Pantries,,Food and Clothing - Assistance and / or Pantries,Salvation Army,918-256-2037,,,222 W. Sequoyah,Vinita,OK,74301,,"Pantry Hours:  Mon, Wed & Fri  10 AM - 2 PM.  Serves Craig County.  Documentation Required:  Must bring in photo ID and Social Security for each member of household.  20.92 miles from Grove."
,,,,,,,,,,,,
,,,,,,,,,,,,
,,,,,,,,,,,,
,,,,,,,,,,,,
,,,,,,,,,,,,
,,,,,,,,,,,,
,,,,,,,,,,,,
,,,,,,,,,,,,
,,,,,,,,,,,,
,,,,,,,,,,,,
,,,,,,,,,,,,
,,,,,,,,,,,,
,,,,,,,,,,,,
,,,,,,,,,,,,
,,,,,,,,,,,,
,,,,,,,,,,,,
,,,,,,,,,,,,
,,,,,,,,,,,,
,,,,,,,,,,,,
,,,,,,,,,,,,
,,,,,,,,,,,,
,,,,,,,,,,,,
,,,,,,,,,,,,
,,,,,,,,,,,,
,,,,,,,,,,,,
,,,,,,,,,,,,
,,,,,,,,,,,,
,,,,,,,,,,,,
,,,,,,,,,,,,
,,,,,,,,,,,,
,,,,,,,,,,,,
,,,,,,,,,,,,
,,,,,,,,,,,,
,,,,,,,,,,,,
,,,,,,,,,,,,
,,,,,,,,,,,,
,,,,,,,,,,,,
,,,,,,,,,,,,
,,,,,,,,,,,,
,,,,,,,,,,,,
,,,,,,,,,,,,
,,,,,,,,,,,,
,,,,,,,,,,,,
,,,,,,,,,,,,
,,,,,,,,,,,,
,,,,,,,,,,,,
,,,,,,,,,,,,
,,,,,,,,,,,,
,,,,,,,,,,,,
,,,,,,,,,,,,
,,,,,,,,,,,,
,,,,,,,,,,,,
,,,,,,,,,,,,
,,,,,,,,,,,,
,,,,,,,,,,,,
,,,,,,,,,,,,
,,,,,,,,,,,,
,,,,,,,,,,,,
,,,,,,,,,,,,
,,,,,,,,,,,,
,,,,,,,,,,,,
,,,,,,,,,,,,
,,,,,,,,,,,,
,,,,,,,,,,,,
,,,,,,,,,,,,
,,,,,,,,,,,,
,,,,,,,,,,,,
,,,,,,,,,,,,
,,,,,,,,,,,,
,,,,,,,,,,,,
,,,,,,,,,,,,
,,,,,,,,,,,,
,,,,,,,,,,,,
,,,,,,,,,,,,
,,,,,,,,,,,,
,,,,,,,,,,,,
,,,,,,,,,,,,
,,,,,,,,,,,,
,,,,,,,,,,,,
,,,,,,,,,,,,
,,,,,,,,,,,,
,,,,,,,,,,,,
,,,,,,,,,,,,
,,,,,,,,,,,,
,,,,,,,,,,,,
,,,,,,,,,,,,
,,,,,,,,,,,,
,,,,,,,,,,,,
,,,,,,,,,,,,
,,,,,,,,,,,,
,,,,,,,,,,,,
,,,,,,,,,,,,
,,,,,,,,,,,,
,,,,,,,,,,,,
,,,,,,,,,,,,
,,,,,,,,,,,,
,,,,,,,,,,,,
,,,,,,,,,,,,
,,,,,,,,,,,,
,,,,,,,,,,,,
,,,,,,,,,,,,
,,,,,,,,,,,,
,,,,,,,,,,,,
,,,,,,,,,,,,
,,,,,,,,,,,,
,,,,,,,,,,,,
,,,,,,,,,,,,
,,,,,,,,,,,,
,,,,,,,,,,,,
,,,,,,,,,,,,
,,,,,,,,,,,,
,,,,,,,,,,,,
,,,,,,,,,,,,
,,,,,,,,,,,,
,,,,,,,,,,,,
,,,,,,,,,,,,
,,,,,,,,,,,,
,,,,,,,,,,,,
,,,,,,,,,,,,
,,,,,,,,,,,,
,,,,,,,,,,,,
,,,,,,,,,,,,
,,,,,,,,,,,,
,,,,,,,,,,,,
,,,,,,,,,,,,
,,,,,,,,,,,,
,,,,,,,,,,,,
,,,,,,,,,,,,
,,,,,,,,,,,,
,,,,,,,,,,,,
,,,,,,,,,,,,
,,,,,,,,,,,,
,,,,,,,,,,,,
,,,,,,,,,,,,
,,,,,,,,,,,,
,,,,,,,,,,,,
,,,,,,,,,,,,
,,,,,,,,,,,,
,,,,,,,,,,,,
,,,,,,,,,,,,
,,,,,,,,,,,,
,,,,,,,,,,,,
,,,,,,,,,,,,
,,,,,,,,,,,,
,,,,,,,,,,,,
,,,,,,,,,,,,
,,,,,,,,,,,,
,,,,,,,,,,,,
,,,,,,,,,,,,
,,,,,,,,,,,,
,,,,,,,,,,,,
,,,,,,,,,,,,
,,,,,,,,,,,,
,,,,,,,,,,,,
,,,,,,,,,,,,
,,,,,,,,,,,,
,,,,,,,,,,,,
,,,,,,,,,,,,
,,,,,,,,,,,,
,,,,,,,,,,,,
,,,,,,,,,,,,
,,,,,,,,,,,,
,,,,,,,,,,,,
,,,,,,,,,,,,
,,,,,,,,,,,,
,,,,,,,,,,,,
,,,,,,,,,,,,
,,,,,,,,,,,,
,,,,,,,,,,,,
,,,,,,,,,,,,
,,,,,,,,,,,,
,,,,,,,,,,,,
,,,,,,,,,,,,
,,,,,,,,,,,,
,,,,,,,,,,,,
,,,,,,,,,,,,
,,,,,,,,,,,,
,,,,,,,,,,,,
,,,,,,,,,,,,
,,,,,,,,,,,,
,,,,,,,,,,,,
,,,,,,,,,,,,
,,,,,,,,,,,,
,,,,,,,,,,,,
,,,,,,,,,,,,
,,,,,,,,,,,,
,,,,,,,,,,,,
,,,,,,,,,,,,
,,,,,,,,,,,,
,,,,,,,,,,,,
,,,,,,,,,,,,
,,,,,,,,,,,,
,,,,,,,,,,,,
,,,,,,,,,,,,
,,,,,,,,,,,,
,,,,,,,,,,,,
,,,,,,,,,,,,
,,,,,,,,,,,,
,,,,,,,,,,,,
,,,,,,,,,,,,
,,,,,,,,,,,,
,,,,,,,,,,,,
,,,,,,,,,,,,
,,,,,,,,,,,,
,,,,,,,,,,,,
,,,,,,,,,,,,
,,,,,,,,,,,,
,,,,,,,,,,,,
,,,,,,,,,,,,
,,,,,,,,,,,,
,,,,,,,,,,,,
,,,,,,,,,,,,
,,,,,,,,,,,,
,,,,,,,,,,,,
,,,,,,,,,,,,
,,,,,,,,,,,,
,,,,,,,,,,,,
,,,,,,,,,,,,
,,,,,,,,,,,,
,,,,,,,,,,,,
,,,,,,,,,,,,
,,,,,,,,,,,,
,,,,,,,,,,,,
,,,,,,,,,,,,
,,,,,,,,,,,,
,,,,,,,,,,,,
,,,,,,,,,,,,
,,,,,,,,,,,,
,,,,,,,,,,,,
,,,,,,,,,,,,
,,,,,,,,,,,,
,,,,,,,,,,,,
,,,,,,,,,,,,
,,,,,,,,,,,,
,,,,,,,,,,,,
,,,,,,,,,,,,
,,,,,,,,,,,,
,,,,,,,,,,,,
,,,,,,,,,,,,
,,,,,,,,,,,,
,,,,,,,,,,,,
,,,,,,,,,,,,
,,,,,,,,,,,,
,,,,,,,,,,,,
,,,,,,,,,,,,
,,,,,,,,,,,,
,,,,,,,,,,,,
,,,,,,,,,,,,
,,,,,,,,,,,,
,,,,,,,,,,,,
,,,,,,,,,,,,
,,,,,,,,,,,,
,,,,,,,,,,,,
,,,,,,,,,,,,
,,,,,,,,,,,,
,,,,,,,,,,,,
,,,,,,,,,,,,
,,,,,,,,,,,,
,,,,,,,,,,,,
,,,,,,,,,,,,
,,,,,,,,,,,,
,,,,,,,,,,,,
,,,,,,,,,,,,
,,,,,,,,,,,,
,,,,,,,,,,,,
,,,,,,,,,,,,
,,,,,,,,,,,,
,,,,,,,,,,,,
,,,,,,,,,,,,
,,,,,,,,,,,,
,,,,,,,,,,,,
,,,,,,,,,,,,
,,,,,,,,,,,,
,,,,,,,,,,,,
,,,,,,,,,,,,
,,,,,,,,,,,,
,,,,,,,,,,,,
,,,,,,,,,,,,
,,,,,,,,,,,,
,,,,,,,,,,,,
,,,,,,,,,,,,
,,,,,,,,,,,,
,,,,,,,,,,,,
,,,,,,,,,,,,
,,,,,,,,,,,,
,,,,,,,,,,,,
,,,,,,,,,,,,
,,,,,,,,,,,,
,,,,,,,,,,,,
,,,,,,,,,,,,
,,,,,,,,,,,,
,,,,,,,,,,,,
,,,,,,,,,,,,
,,,,,,,,,,,,
,,,,,,,,,,,,
,,,,,,,,,,,,
,,,,,,,,,,,,
,,,,,,,,,,,,
,,,,,,,,,,,,
,,,,,,,,,,,,
,,,,,,,,,,,,
,,,,,,,,,,,,
,,,,,,,,,,,,
,,,,,,,,,,,,
,,,,,,,,,,,,
,,,,,,,,,,,,
,,,,,,,,,,,,
,,,,,,,,,,,,
,,,,,,,,,,,,
,,,,,,,,,,,,
,,,,,,,,,,,,
,,,,,,,,,,,,
,,,,,,,,,,,,
,,,,,,,,,,,,
,,,,,,,,,,,,
,,,,,,,,,,,,
,,,,,,,,,,,,
,,,,,,,,,,,,
,,,,,,,,,,,,
,,,,,,,,,,,,
,,,,,,,,,,,,
,,,,,,,,,,,,
,,,,,,,,,,,,
,,,,,,,,,,,,
,,,,,,,,,,,,
,,,,,,,,,,,,
,,,,,,,,,,,,
,,,,,,,,,,,,
,,,,,,,,,,,,
,,,,,,,,,,,,
,,,,,,,,,,,,
,,,,,,,,,,,,
,,,,,,,,,,,,
,,,,,,,,,,,,
,,,,,,,,,,,,
,,,,,,,,,,,,
,,,,,,,,,,,,
,,,,,,,,,,,,
,,,,,,,,,,,,
,,,,,,,,,,,,
,,,,,,,,,,,,
,,,,,,,,,,,,
,,,,,,,,,,,,
,,,,,,,,,,,,
,,,,,,,,,,,,
,,,,,,,,,,,,
,,,,,,,,,,,,
,,,,,,,,,,,,
,,,,,,,,,,,,
,,,,,,,,,,,,
,,,,,,,,,,,,
,,,,,,,,,,,,
,,,,,,,,,,,,
,,,,,,,,,,,,
,,,,,,,,,,,,
,,,,,,,,,,,,
,,,,,,,,,,,,
,,,,,,,,,,,,
,,,,,,,,,,,,
,,,,,,,,,,,,
,,,,,,,,,,,,
,,,,,,,,,,,,
,,,,,,,,,,,,
,,,,,,,,,,,,
,,,,,,,,,,,,
,,,,,,,,,,,,
,,,,,,,,,,,,
,,,,,,,,,,,,
,,,,,,,,,,,,
,,,,,,,,,,,,
,,,,,,,,,,,,
,,,,,,,,,,,,
,,,,,,,,,,,,
,,,,,,,,,,,,
,,,,,,,,,,,,
,,,,,,,,,,,,
,,,,,,,,,,,,
,,,,,,,,,,,,
,,,,,,,,,,,,
,,,,,,,,,,,,
,,,,,,,,,,,,
,,,,,,,,,,,,
,,,,,,,,,,,,
,,,,,,,,,,,,
,,,,,,,,,,,,
,,,,,,,,,,,,
,,,,,,,,,,,,
,,,,,,,,,,,,
,,,,,,,,,,,,
,,,,,,,,,,,,
,,,,,,,,,,,,
,,,,,,,,,,,,
,,,,,,,,,,,,
,,,,,,,,,,,,
,,,,,,,,,,,,
,,,,,,,,,,,,
,,,,,,,,,,,,
,,,,,,,,,,,,
,,,,,,,,,,,,
,,,,,,,,,,,,
,,,,,,,,,,,,
,,,,,,,,,,,,
,,,,,,,,,,,,
,,,,,,,,,,,,
,,,,,,,,,,,,
,,,,,,,,,,,,
,,,,,,,,,,,,
,,,,,,,,,,,,
,,,,,,,,,,,,
,,,,,,,,,,,,
,,,,,,,,,,,,
,,,,,,,,,,,,
,,,,,,,,,,,,
,,,,,,,,,,,,
,,,,,,,,,,,,
,,,,,,,,,,,,
,,,,,,,,,,,,
,,,,,,,,,,,,
,,,,,,,,,,,,
,,,,,,,,,,,,
,,,,,,,,,,,,
,,,,,,,,,,,,
,,,,,,,,,,,,
,,,,,,,,,,,,
,,,,,,,,,,,,
,,,,,,,,,,,,
,,,,,,,,,,,,
,,,,,,,,,,,,
,,,,,,,,,,,,
,,,,,,,,,,,,
,,,,,,,,,,,,
,,,,,,,,,,,,
,,,,,,,,,,,,
,,,,,,,,,,,,
,,,,,,,,,,,,
,,,,,,,,,,,,
,,,,,,,,,,,,
,,,,,,,,,,,,
,,,,,,,,,,,,
,,,,,,,,,,,,
,,,,,,,,,,,,
,,,,,,,,,,,,
,,,,,,,,,,,,
,,,,,,,,,,,,
,,,,,,,,,,,,
,,,,,,,,,,,,
,,,,,,,,,,,,
,,,,,,,,,,,,
,,,,,,,,,,,,
,,,,,,,,,,,,
,,,,,,,,,,,,
,,,,,,,,,,,,
,,,,,,,,,,,,
,,,,,,,,,,,,
,,,,,,,,,,,,
,,,,,,,,,,,,
,,,,,,,,,,,,
,,,,,,,,,,,,
,,,,,,,,,,,,
,,,,,,,,,,,,
,,,,,,,,,,,,
,,,,,,,,,,,,
,,,,,,,,,,,,
,,,,,,,,,,,,
,,,,,,,,,,,,
,,,,,,,,,,,,
,,,,,,,,,,,,
,,,,,,,,,,,,
,,,,,,,,,,,,
,,,,,,,,,,,,
,,,,,,,,,,,,
,,,,,,,,,,,,
,,,,,,,,,,,,
,,,,,,,,,,,,
,,,,,,,,,,,,
,,,,,,,,,,,,
,,,,,,,,,,,,
,,,,,,,,,,,,
,,,,,,,,,,,,
,,,,,,,,,,,,
,,,,,,,,,,,,
,,,,,,,,,,,,
,,,,,,,,,,,,
,,,,,,,,,,,,
,,,,,,,,,,,,
,,,,,,,,,,,,
,,,,,,,,,,,,
,,,,,,,,,,,,
,,,,,,,,,,,,
,,,,,,,,,,,,
,,,,,,,,,,,,
,,,,,,,,,,,,
,,,,,,,,,,,,
,,,,,,,,,,,,
,,,,,,,,,,,,
,,,,,,,,,,,,
,,,,,,,,,,,,
,,,,,,,,,,,,
,,,,,,,,,,,,
,,,,,,,,,,,,
,,,,,,,,,,,,
,,,,,,,,,,,,
,,,,,,,,,,,,
,,,,,,,,,,,,
,,,,,,,,,,,,
,,,,,,,,,,,,
,,,,,,,,,,,,
,,,,,,,,,,,,
,,,,,,,,,,,,
,,,,,,,,,,,,
,,,,,,,,,,,,
,,,,,,,,,,,,
,,,,,,,,,,,,
,,,,,,,,,,,,
Sources:,DC Community Resource Guide - dc.openreferral.org,,,,,,,,,,,
Filtered by: ,,,,,,,,,,,,
Downloaded: ,44086.71111,,,,,,,,,,,
